{"type":"FeatureCollection", "features": [
{"type":"Feature","geometry":{"type":"Polygon","coordinates":[[[-4.6316,12.0573],[-4.7145,12.0382],[-4.7584,12.004],[-4.9923,11.9847],[-5.1466,11.9494],[-5.2599,11.832],[-5.4016,11.8289],[-5.2609,11.765],[-5.2661,11.7143],[-5.2925,11.6185],[-5.2153,11.5785],[-5.1981,11.4374],[-5.2555,11.2427],[-5.3467,11.1252],[-5.4889,11.0813],[-5.4776,11.0211],[-5.4018,10.8512],[-5.4602,10.7212],[-5.4991,10.424],[-5.4039,10.2962],[-5.2419,10.3145],[-5.1152,10.291],[-5.1219,10.2042],[-5.0659,10.1817],[-5.0555,10.0829],[-4.9994,10.1073],[-4.962,10.0256],[-4.9666,9.8918],[-4.7859,9.8357],[-4.8165,9.7835],[-4.6903,9.6785],[-4.5862,9.7026],[-4.5141,9.7509],[-4.5047,9.6467],[-4.4297,9.6642],[-4.3905,9.5964],[-4.3128,9.5967],[-4.2664,9.7599],[-4.1651,9.8109],[-4.1253,9.8483],[-4.0507,9.8028],[-3.9677,9.8721],[-3.6346,9.9578],[-3.3107,9.9105],[-3.2718,9.8458],[-3.1982,9.9325],[-3.1905,9.8762],[-2.9831,9.6883],[-2.9438,9.6111],[-2.7612,9.416],[-2.6887,9.4937],[-2.7706,9.5738],[-2.7836,9.7282],[-2.784,9.7287],[-2.7264,9.8295],[-2.788,10.0598],[-2.788,10.0603],[-2.7957,10.1775],[-2.7959,10.1782],[-2.7591,10.2577],[-2.8397,10.3011],[-2.8401,10.3016],[-2.7733,10.4227],[-2.8729,10.4697],[-2.8729,10.47],[-2.9381,10.7077],[-2.9385,10.7078],[-2.8641,10.8568],[-2.864,10.8573],[-2.8408,10.9703],[-2.8407,10.9711],[-2.8332,11.008],[-2.7161,11.0042],[-2.3612,10.989],[-1.8834,10.9846],[-1.4264,11.0215],[-1.0674,11.0058],[-0.9352,11.0008],[-0.8957,10.9827],[-0.8953,10.9825],[-0.8617,10.9907],[-0.8613,10.9914],[-0.6833,11.0002],[-0.6129,10.8964],[-0.5649,10.9954],[-0.4957,11.0127],[-0.4914,11.0199],[-0.3707,11.1263],[-0.3616,11.0688],[-0.2814,11.1696],[-0.1084,11.1331],[0.0128,11.1136],[0.2721,11.0578],[0.4234,11.0266],[0.5049,11.0092],[0.5008,10.9334],[0.7847,11.0011],[0.7873,11.0011],[0.9117,11.001],[0.888,10.9142],[0.9357,10.8978],[0.977,11.0884],[1.1144,11.0319],[1.0538,11.1388],[1.165,11.1696],[1.1487,11.2809],[1.2625,11.25],[1.2676,11.3267],[1.3515,11.3064],[1.3254,11.3638],[1.4101,11.459],[1.5536,11.4783],[1.6242,11.3934],[1.8782,11.453],[1.9971,11.4177],[2.0611,11.4749],[2.1249,11.5357],[2.1276,11.5396],[2.3118,11.681],[2.4074,11.8989],[2.2017,12.1706],[2.1989,12.1746],[2.0656,12.3573],[2.2618,12.4133],[2.2742,12.4646],[2.162,12.6859],[2.0308,12.7304],[1.9798,12.7369],[1.8686,12.6054],[1.7997,12.6444],[1.4091,12.8664],[1.3467,12.9018],[0.9922,13.1031],[0.992,13.1925],[0.992,13.3747],[1.1751,13.3215],[1.2117,13.3803],[1.2851,13.3545],[1.0102,13.4894],[0.9942,13.5764],[0.9129,13.6144],[0.7964,13.6313],[0.7726,13.6896],[0.6458,13.6825],[0.6086,13.7398],[0.5385,13.8456],[0.5347,13.8481],[0.2916,14.2463],[0.1898,14.4701],[0.1712,14.6318],[0.236,14.7514],[0.1884,14.8571],[0.1903,14.859],[0.2435,14.9128],[-0.2462,15.0778],[-0.4152,15.0064],[-0.4437,15.0828],[-0.7253,15.0828],[-0.9248,14.9102],[-1.0494,14.8044],[-1.256,14.7445],[-1.7454,14.4873],[-1.9808,14.4747],[-1.9899,14.3139],[-1.9974,14.1912],[-2.0967,14.1481],[-2.1907,14.1978],[-2.4741,14.298],[-2.6629,14.1466],[-2.8397,14.0525],[-2.9052,13.8003],[-2.8748,13.6527],[-2.951,13.6244],[-3.2688,13.7079],[-3.233,13.2873],[-3.3031,13.2867],[-3.437,13.2748],[-3.4403,13.1585],[-3.5483,13.167],[-3.8382,13.3587],[-3.9603,13.379],[-3.8952,13.441],[-3.9647,13.5045],[-4.0442,13.4139],[-4.2593,13.234],[-4.235,13.1775],[-4.3403,13.1415],[-4.2731,13.0359],[-4.2179,12.9459],[-4.2336,12.7284],[-4.4785,12.7272],[-4.4819,12.6562],[-4.3669,12.5334],[-4.4381,12.4201],[-4.3962,12.3094],[-4.474,12.3304],[-4.4759,12.2801],[-4.5802,12.1996],[-4.5416,12.1409],[-4.6062,12.1373],[-4.6316,12.0573]]]},"properties":{"iso3":"BFA"}},
{"type":"Feature","geometry":{"type":"Polygon","coordinates":[[[15.3151,-4.3115],[15.3028,-4.3136],[15.302450951949229,-4.314372892112421],[15.2986,-4.3155],[15.299,-4.317],[15.301589537223341,-4.316223138832998],[15.299972968071398,-4.319798243688255],[15.2646,-4.3175],[15.2534,-4.3273],[15.1854,-4.3392],[15.1268,-4.4437],[14.9684,-4.625],[14.8672,-4.767],[14.6875,-4.9098],[14.4959,-4.842],[14.4159,-4.8936],[14.395,-4.5476],[14.4804,-4.4364],[14.3994,-4.3718],[14.4128,-4.3147],[14.027,-4.4279],[13.9305,-4.516],[13.8356,-4.4486],[13.7359,-4.4578],[13.7317,-4.6962],[13.6901,-4.7717],[13.6523,-4.752],[13.6001,-4.8218],[13.5275,-4.7766],[13.4158,-4.8928],[13.1881,-4.6431],[12.9372,-4.7252],[12.8394,-4.7552],[12.7681,-4.8719],[12.7078,-4.9523],[12.6343,-4.9552],[12.6289,-5.022],[12.4794,-5.0693],[12.5216,-5.1335],[12.4732,-5.1514],[12.5086,-5.2638],[12.5092,-5.6642],[12.5078,-5.7542],[12.2057,-5.7775],[12.3969,-6.0039],[12.4373,-6.0574],[12.6713,-6.0022],[12.9847,-5.857],[13.1005,-5.8785],[13.3583,-5.9043],[13.3749,-5.8666],[13.4261,-5.8619],[13.5512,-5.8947],[14.0083,-5.8339],[14.2317,-5.8689],[14.6114,-5.9109],[14.7763,-5.8597],[15.2954,-5.8798],[15.7807,-5.8783],[16.1394,-5.8585],[16.5873,-5.8753],[16.6068,-6.0856],[16.6885,-6.1393],[16.7307,-6.1939],[16.6906,-6.4056],[16.9454,-6.9383],[16.9536,-7.2033],[17.1116,-7.3538],[17.11,-7.4227],[17.1853,-7.4321],[17.1563,-7.475],[17.2995,-7.6694],[17.5602,-8.1274],[17.8849,-8.079],[18.1,-8.0989],[18.0979,-8.04],[18.2169,-7.989],[18.376,-8.027],[18.5269,-8.0001],[18.5582,-7.9336],[18.7633,-7.923],[18.8,-8.0001],[19.4356,-7.9986],[19.343,-7.902],[19.4089,-7.701],[19.369,-7.5831],[19.474,-7.5669],[19.55,-7.472],[19.487,-7.3131],[19.5439,-6.999],[19.9557,-6.9995],[20.297,-7.0101],[20.3188,-6.9278],[20.6219,-6.9321],[20.5428,-7.299],[21.311,-7.2886],[21.7797,-7.2747],[21.8536,-7.4265],[21.8294,-7.6374],[21.7447,-7.933],[21.9348,-8.3198],[21.9174,-8.6682],[21.7942,-9.4209],[21.8804,-9.6509],[22.0246,-9.8337],[22.1867,-9.9196],[22.2196,-10.0817],[22.2408,-10.29],[22.329,-10.399],[22.278,-10.516],[22.3342,-10.758],[22.1741,-10.8749],[22.2721,-11.2459],[22.4371,-11.1749],[22.5101,-11.042],[22.7461,-11.1141],[22.867,-11.0621],[23.084,-11.1241],[23.203,-11.102],[23.4291,-10.9401],[23.5061,-10.9461],[23.852,-11.028],[23.987,-10.8919],[24.059,-10.8889],[24.1301,-10.919],[24.1331,-11.029],[24.1763,-11.0229],[24.3853,-11.0826],[24.4063,-11.263],[24.2955,-11.3866],[24.4565,-11.4574],[24.5944,-11.444],[24.7545,-11.3069],[25.3355,-11.2291],[25.291,-11.39],[25.32,-11.5636],[25.5081,-11.7299],[25.497,-11.7851],[25.65,-11.7289],[25.719,-11.8159],[25.88,-11.7999],[25.99,-11.941],[26.33,-11.966],[26.4568,-11.9176],[26.708,-12.009],[26.775,-11.963],[26.8841,-11.9851],[27.008,-11.847],[27.0441,-11.603],[27.2061,-11.5679],[27.232,-11.7869],[27.463,-11.928],[27.5151,-12.157],[27.6731,-12.2832],[27.9181,-12.2398],[27.955,-12.354],[28.0761,-12.353],[28.129,-12.4361],[28.174,-12.383],[28.315,-12.4189],[28.442,-12.5159],[28.523,-12.6321],[28.4651,-12.734],[28.573,-12.8929],[28.6531,-12.8189],[28.79,-12.9458],[29.0041,-13.4161],[29.122,-13.3701],[29.1831,-13.443],[29.5811,-13.2129],[29.6779,-13.2359],[29.6111,-13.4091],[29.809,-13.4551],[29.8071,-12.156],[29.485,-12.2429],[29.456,-12.3331],[29.537,-12.4071],[29.499,-12.47],[29.2669,-12.3641],[29.0589,-12.389],[28.7591,-11.9901],[28.5096,-11.8835],[28.4363,-11.8274],[28.3832,-11.5828],[28.5102,-10.9764],[28.5236,-10.9638],[28.5576,-10.8341],[28.6968,-10.6627],[28.5872,-10.2463],[28.697,-9.8062],[28.5788,-9.4143],[28.4815,-9.2422],[28.7858,-8.9441],[28.9363,-8.7048],[28.9096,-8.4833],[29.6285,-8.3955],[30.7932,-8.2716],[30.2761,-7.1025],[30.1358,-6.8911],[29.906,-6.708],[29.7706,-6.5828],[29.7087,-6.4971],[29.6714,-6.4378],[29.595,-6.2521],[29.578,-5.9937],[29.5991,-5.664],[29.3722,-5.0079],[29.379,-4.2019],[29.2255,-3.8544],[29.2354,-3.5611],[29.2239,-3.3251],[29.2543,-3.053],[29.1336,-2.9368],[29.1315,-2.9338],[29.0043,-2.7809],[29.0347,-2.734],[28.8971,-2.6611],[28.8954,-2.6528],[28.8857,-2.5552],[28.8834,-2.5541],[28.8769,-2.5504],[28.8903,-2.4788],[28.8805,-2.4662],[28.874,-2.4598],[28.8717,-2.4372],[28.9054,-2.3733],[29.0994,-2.2839],[29.1487,-2.1967],[29.167,-1.8862],[29.2425,-1.7001],[29.2469,-1.6833],[29.2914,-1.6306],[29.3998,-1.5291],[29.5303,-1.4208],[29.609,-1.3672],[29.5937,-1.0504],[29.6804,-0.4457],[29.6934,-0.3898],[29.7578,-0.0672],[29.748,0.1068],[29.8395,0.184],[29.8831,0.3855],[29.9923,0.4819],[29.9602,0.6089],[29.9108,0.6544],[29.9717,0.8143],[29.9868,0.8373],[30.1489,0.8893],[30.2712,1.1194],[30.363,1.2006],[30.5109,1.2081],[30.6001,1.3484],[30.8189,1.5851],[30.987,1.7188],[31.035,1.7589],[31.2491,2.0246],[31.305,2.1568],[31.203,2.2241],[31.1994,2.2886],[31.1012,2.2854],[30.9843,2.4088],[30.924,2.3372],[30.7611,2.437],[30.8004,2.6852],[30.8904,2.8715],[30.7702,3.0302],[30.903,3.356],[30.929,3.496],[30.8541,3.486],[30.8619,3.563],[30.771,3.675],[30.5985,3.5971],[30.541,3.595],[30.5558,3.8274],[30.453,3.8312],[30.2662,3.9568],[30.2022,3.9274],[30.1921,4.0091],[30.1692,4.1072],[29.9698,4.233],[29.9791,4.3078],[29.8162,4.3797],[29.8103,4.3874],[29.8409,4.569],[29.5376,4.6784],[29.4755,4.6675],[29.413,4.5072],[29.2407,4.36],[29.0347,4.4889],[28.8303,4.4893],[28.7869,4.5714],[28.4936,4.3198],[28.4145,4.2829],[28.3536,4.3377],[28.2386,4.3296],[28.039,4.4669],[28.0146,4.5462],[27.7972,4.5703],[27.7882,4.7562],[27.7109,4.7735],[27.6843,4.8712],[27.5669,4.8735],[27.4316,5.0776],[27.1581,5.1991],[26.9702,5.152],[26.8722,5.0338],[26.75,5.1034],[26.4881,5.0464],[26.1609,5.2586],[26.0679,5.194],[25.9852,5.2398],[25.964,5.1916],[25.8359,5.1867],[25.7925,5.2727],[25.7494,5.2368],[25.5551,5.3765],[25.3677,5.3157],[25.3181,5.0362],[25.1542,5.0283],[25.0885,4.9379],[24.9835,4.9931],[24.7415,4.9078],[24.6931,4.9211],[24.6141,5.03],[24.4674,5.1046],[24.4361,5.0594],[24.4082,5.1091],[24.3574,5.0599],[24.4112,5.0321],[24.2991,5.004],[24.2802,4.9392],[23.9723,4.8814],[23.959,4.8081],[23.8732,4.8211],[23.8342,4.8292],[23.4574,4.6695],[23.4072,4.6004],[23.1883,4.7358],[23.1134,4.708],[22.9749,4.8469],[22.9068,4.8178],[22.8659,4.7078],[22.7834,4.7044],[22.6992,4.4716],[22.5993,4.4716],[22.6195,4.3505],[22.4453,4.1244],[22.2192,4.1259],[21.993,4.24],[21.9652,4.2251],[21.7348,4.304],[21.5648,4.2471],[21.282,4.3381],[21.2109,4.2871],[21.087,4.381],[20.8648,4.446],[20.624,4.4019],[20.4779,4.485],[20.4049,4.6771],[20.1001,4.9023],[19.915,4.9801],[19.8249,5.0929],[19.555,5.146],[19.403,5.1209],[19.202,4.942],[19.106,4.929],[19.0139,4.768],[18.7331,4.3867],[18.546,4.308],[18.652,3.978],[18.587,3.7509],[18.6376,3.4589],[18.642,3.2091],[18.4529,2.927],[18.4209,2.7519],[18.1059,2.267],[18.086,1.984],[18.0679,1.5211],[17.9277,1.251],[17.8595,0.8943],[17.8759,0.594],[17.963,0.4079],[17.7749,0.1079],[17.714,-0.1278],[17.7031,-0.5591],[17.4212,-0.9105],[16.8459,-1.264],[16.504,-1.8741],[16.242,-2.1229],[16.1849,-2.32],[16.237,-2.6251],[16.1799,-2.875],[16.191,-3.179],[16.2112,-3.3396],[15.9022,-3.9486],[15.5563,-4.0482],[15.5038,-4.1456],[15.5492,-4.2467],[15.436,-4.3373],[15.4285,-4.3373],[15.4184,-4.3358],[15.405,-4.3326],[15.3716,-4.3241],[15.341,-4.3239],[15.342,-4.3224],[15.329058960176992,-4.321603628318584],[15.3151,-4.3115]]]},"properties":{"iso3":"COD"}},
{"type":"Feature","geometry":{"type":"MultiPolygon","coordinates":[[[[98.1682,25.6259],[98.3137,25.548],[98.403,25.5955],[98.4214,25.674],[98.5329,25.8454],[98.6394,25.8007],[98.7052,25.852],[98.5729,26.1208],[98.7163,26.1255],[98.7251,26.211],[98.672,26.2419],[98.7512,26.4765],[98.7482,26.51],[98.7622,26.8],[98.7335,26.8507],[98.7659,27.0533],[98.7144,27.0769],[98.6935,27.2003],[98.741,27.3266],[98.6872,27.4243],[98.7049,27.5588],[98.5875,27.5682],[98.5582,27.6463],[98.4788,27.6361],[98.4315,27.6636],[98.4294,27.5527],[98.373,27.509],[98.3178,27.5226],[98.1699,27.8524],[98.2039,27.8917],[98.1371,27.963],[98.1363,28.1475],[98.0113,28.2086],[97.9085,28.3681],[97.7944,28.3338],[97.6878,28.5236],[97.5925,28.5207],[97.5007,28.4942],[97.4804,28.2793],[97.35,28.2392],[97.3127,28.0629],[97.3774,27.9812],[97.3652,27.873],[97.2469,27.8993],[96.8895,27.6125],[96.9051,27.4515],[97.1621,27.1424],[97.1384,27.0922],[97.1086,27.1034],[97.0666,27.0926],[96.8591,27.1902],[96.8841,27.2585],[96.746,27.3573],[96.0898,27.223],[95.946,27.0508],[95.8002,27.0135],[95.7421,26.8959],[95.6684,26.9025],[95.607,26.8124],[95.5422,26.8342],[95.4327,26.7014],[95.3026,26.6526],[95.2342,26.6813],[95.0655,26.4583],[95.13,26.3817],[95.1193,26.1004],[95.1852,26.0741],[95.0117,25.897],[95.0466,25.7574],[95.0376,25.7406],[94.8972,25.5678],[94.6353,25.3932],[94.5777,25.2137],[94.7368,25.1341],[94.7452,25.0811],[94.6715,24.8745],[94.6104,24.7273],[94.3942,24.4833],[94.1421,23.8348],[93.9315,23.9513],[93.8105,23.9267],[93.7544,24.0047],[93.6203,24.0096],[93.5061,23.9471],[93.381,24.0873],[93.3408,24.1051],[93.3259,24.047],[93.3933,23.9205],[93.4244,23.5818],[93.3887,23.3686],[93.3398,23.0728],[93.292,23.0073],[93.1254,23.0415],[93.1636,22.9114],[93.092,22.7114],[93.1394,22.5915],[93.1075,22.5272],[93.1854,22.4256],[93.1579,22.1868],[93.0431,22.1999],[93.0566,22.0977],[93.0048,22.1068],[93.0049,21.9882],[92.952,22.0315],[92.9058,21.9411],[92.8636,22.0605],[92.7036,22.1505],[92.6806,22.0122],[92.6054,21.9716],[92.6088,21.5913],[92.6791,21.2862],[92.5985,21.2468],[92.5646,21.37],[92.4394,21.3645],[92.3859,21.4744],[92.2692,21.4277],[92.1726,21.1694],[92.2616,21.0724],[92.3828,20.7039],[92.4969,20.6193],[92.6272,20.4475],[92.6637,20.3877],[92.7518,20.2391],[92.746,20.3361],[92.7465,20.3338],[92.758,20.3889],[92.7543,20.4089],[92.7435,20.3788],[92.7355,20.5116],[92.7501,20.4829],[92.7689,20.4886],[92.76,20.4477],[92.7618,20.4477],[92.7592,20.4447],[92.7797,20.2822],[92.8616,20.3123],[92.8303,20.3908],[92.83568782205988,20.393405100776206],[92.873,20.3106],[92.9268,20.3157],[92.9506,20.411],[92.9483,20.344],[92.9294,20.3126],[92.8925,20.2981],[92.7618,20.1988],[92.898,20.1127],[92.8788,20.2485],[92.9023,20.2124],[92.9197,20.2466],[92.921,20.1967],[92.9373,20.282],[92.9454,20.2729],[92.9442,20.2627],[92.95,20.2542],[92.9504,20.2368],[92.9579,20.2347],[93.013,20.3053],[93.03560425626065,20.38876455673372],[93.0318,20.3575],[93.0762,20.3667],[93.0744,20.4112],[93.1102,20.4199],[93.1015,20.492],[93.1147,20.4207],[93.0769,20.4057],[93.1219,20.3826],[93.0342,20.3321],[92.9925,20.1411],[93.1332,20.2228],[93.1039,20.1921],[93.2144,20.2362],[93.1767,20.195],[93.2249,20.1543],[93.22110920625134,20.13323814594351],[93.1821,20.1855],[93.083,20.1817],[93.1664,20.0338],[93.2134388573254,20.09062127455679],[93.2026,20.0304],[93.3522,20.0518],[93.3444,20.0718],[93.3758,20.0071],[93.3785,20.0701],[93.4186,19.9744],[93.4562,19.9492],[93.4601,19.9527],[93.4547,19.9411],[93.4623,19.9441],[93.4556,19.939],[93.4724,19.9284],[93.495,19.9345],[93.498,19.9708],[93.4828,19.9594],[93.4765,19.9657],[93.4754,19.966],[93.5246,20.0088],[93.5623,19.8885],[93.5749,19.8907],[93.5698,19.8881],[93.58,19.8796],[93.5889,19.8836],[93.5971,19.8945],[93.6615,19.9055],[93.5408,19.8323],[93.5676,19.8346],[93.5439,19.8198],[93.5465,19.8019],[93.5614,19.8063],[93.5416,19.7854],[93.5542,19.7623],[93.5724,19.7788],[93.5622,19.8065],[93.5892,19.8145],[93.5751,19.8352],[93.5954,19.8369],[93.6227,19.8722],[93.6616,19.9055],[93.7027,19.9125],[93.7041,19.9723],[93.7533,19.9159],[93.7168,19.9012],[93.7932,19.8692],[93.7827,19.8686],[93.7405,19.8237],[93.7388,19.8363],[93.7281,19.8287],[93.7313,19.8407],[93.7624,19.8703],[93.7197,19.8832],[93.6391,19.8615],[93.5968,19.7126],[93.6539,19.767],[93.6357,19.7194],[93.6971,19.7145],[93.7142,19.7776],[93.76692992116045,19.763260365674093],[93.7652,19.7578],[93.7196,19.6815],[93.8043,19.7128],[93.818,19.6395],[93.7216,19.6202],[93.8171,19.6051],[93.8164,19.5981],[93.7848,19.6036],[93.7724,19.5887],[93.9001,19.4903],[93.9456,19.541],[93.937,19.495],[93.9022,19.4697],[93.9912,19.4591],[94.0145,19.377],[93.9010742907378,19.295687164904813],[93.9836,19.4031],[93.8756,19.4704],[93.8559,19.4625],[93.8196,19.4857],[93.8582,19.4961],[93.8551,19.5066],[93.7826,19.5334],[93.8156,19.4882],[93.7167,19.5512],[93.6683,19.5578],[93.6481,19.4449],[93.6616,19.4286],[93.6492,19.4303],[93.6547,19.4209],[93.666,19.4186],[93.6648,19.4247],[93.6847,19.4008],[93.6596,19.4086],[93.6775,19.3898],[93.6897,19.3921],[93.6891,19.3956],[93.7666,19.3024],[93.8761,19.3223],[93.90057965811965,19.29533257174623],[93.8054,19.2271],[93.7161,19.2977],[93.6507,19.2523],[93.6599,19.3217],[93.6419,19.3397],[93.642,19.3401],[93.6416,19.3401],[93.5503,19.4314],[93.4689,19.3669],[93.6634,19.0701],[93.6673,19.0156],[93.9373,18.8469],[93.9867,18.9663],[93.9692,19.1248],[93.8971,19.202],[93.9376,19.208],[93.9534,19.1437],[94.006,19.1541],[94.0716,19.3768],[94.0797,19.369],[94.0356,19.1216],[94.0966,19.1588],[94.0762,19.1265],[94.0334,19.1066],[94.027,19.086],[94.0892,19.0824],[94.0301,18.8985],[94.1052,18.9053],[94.0799,18.8758],[94.0203,18.8616],[94.0701,18.8573],[94.0607,18.8405],[94.1288,18.8155],[94.1247,18.8615],[94.1524,18.89],[94.1773,18.7726],[94.1727,18.7727],[94.1776,18.757],[94.18,18.7595],[94.1814,18.7531],[94.2165,18.7846],[94.2085,18.7343],[94.2719,18.7375],[94.2169,18.7237],[94.1389,18.7419],[94.1923,18.6889],[94.2377,18.643],[94.2501,18.5786],[94.3331,18.3692],[94.4045,18.317],[94.3243,18.31],[94.3187,18.2495],[94.4131,18.2442],[94.4448,18.1365],[94.4806,17.7881],[94.5899,17.5757],[94.5882,17.5769],[94.5833,17.5711],[94.5862,17.5601],[94.5911,17.5734],[94.6068,17.5427],[94.6065,17.5153],[94.5564,17.5974],[94.5596,17.4753],[94.5669,17.3176],[94.4849,17.2636],[94.5339,17.1844],[94.4423,17.1851],[94.4869,17.1174],[94.4444,16.9449],[94.3832,16.9167],[94.3626,16.7343],[94.3399,16.5582],[94.2379,16.5226],[94.2253,16.3932],[94.2239,16.3915],[94.2243,16.3835],[94.1912,16.0427],[94.2428,15.9545],[94.2828,15.9886],[94.3238,15.9782],[94.3371,16.0179],[94.3282,16.0211],[94.3047,16.0073],[94.5068,16.1793],[94.4712,16.2939],[94.4884,16.2882],[94.4876,16.2881],[94.4996,16.2756],[94.5105,16.2741],[94.5112,16.2806],[94.5151,16.2793],[94.5098,16.2345],[94.5447,16.2048],[94.5587,16.2523],[94.5369,16.2721],[94.5634,16.2633],[94.6341,16.3421],[94.6156,16.3431],[94.6432,16.3983],[94.6701,16.3847],[94.6669,16.3787],[94.6762,16.3891],[94.6833,16.4644],[94.6842,16.463],[94.6837,16.4682],[94.6994,16.6337],[94.6409,16.6274],[94.6802,16.6732],[94.7315,16.6331],[94.73196346126511,16.639984330875606],[94.7446209882311,16.626901665599313],[94.6998,16.6174],[94.6869,16.495],[94.765,16.5873],[94.74857381814192,16.622816068882322],[94.784,16.5862],[94.6913,16.4869],[94.7094,16.394],[94.7633,16.4127],[94.7277,16.3592],[94.6558,16.2476],[94.7186,16.2137],[94.7481,16.2795],[94.7556,16.2336],[94.7172,16.2095],[94.6768,16.2084],[94.62166764829617,16.066653470761462],[94.6114,16.0527],[94.6126,16.0478],[94.61553282361253,16.05088069707199],[94.5712,15.9369],[94.6437,15.9746],[94.6043,15.928],[94.6681,15.8497],[94.8062,15.9708],[94.8091,15.9816],[94.8102,15.9803],[94.8551,16.0206],[94.8452,16.0694],[94.8232,16.033],[94.8665,16.1904],[95.0441,16.3323],[95.0439,16.317],[94.8813,16.1882],[94.8788,16.0327],[94.8231,15.9498],[94.8739,15.8265],[94.8638,15.9002],[94.9437,15.9542],[94.9506,15.9462],[94.9403,15.9332],[94.9073,15.9245],[94.8691,15.8927],[94.8885,15.8259],[94.8337,15.7913],[94.8645,15.7568],[94.9667,15.7472],[94.9825,15.8522],[95.0469,15.8442],[95.0863,16.0957],[95.1196,16.2561],[95.1306,16.1227],[95.2776,16.1842],[95.1841,16.0285],[95.1804,16.0286],[95.1869,16.111],[95.0923,16.0656],[95.1009,15.9801],[95.1156,16.0262],[95.1148,15.9888],[95.1006,15.961],[95.1074,15.9398],[95.1142,15.9564],[95.1112,15.8102],[95.2241,15.799],[95.2521,15.9302],[95.2596,15.9405],[95.2477,15.8503],[95.3384,15.978],[95.3235,16.0866],[95.2742,16.0339],[95.3016,16.1619],[95.3921,16.2975],[95.3909,16.2406],[95.3662,16.1645],[95.3288,16.1053],[95.3313,16.0902],[95.3314,16.0888],[95.3316,16.0886],[95.3324,16.0838],[95.3321,16.0841],[95.3325,16.0833],[95.3474,15.9942],[95.3381,15.9655],[95.3418,15.9576],[95.3495,15.9818],[95.3534,15.9581],[95.3039,15.869],[95.2996,15.712],[95.5296,15.7985],[95.7407,16.1108],[95.7112,16.2754],[95.7505,16.1238],[95.8567,16.2159],[95.8457,16.191],[95.8814,16.1937],[95.9301,16.2432],[95.9178,16.2124],[96.0122,16.2413],[96.0557,16.2943],[96.0787,16.3331],[95.9899,16.3884],[95.9922,16.3915],[95.9807,16.4046],[95.9276,16.4025],[95.9608,16.3486],[95.986,16.3831],[95.9638,16.3276],[95.9509,16.362],[95.9469,16.3579],[95.9534,16.3015],[95.9418,16.2725],[95.9321,16.3874],[95.9233,16.3673],[95.9292,16.3881],[95.8872306011162,16.41812127607721],[95.9836,16.415],[96.04509634358347,16.369905796688418],[96.0414,16.3711],[96.0561,16.3615],[96.05571386961455,16.362120148800884],[96.1152,16.3185],[96.3111,16.3991],[96.2729,16.498],[96.2337,16.6087],[96.1399,16.768],[96.1202,16.7567],[96.1143,16.7816],[96.1157,16.8079],[96.108,16.8253],[96.1127,16.8316],[96.115,16.831],[96.118,16.8221],[96.1203,16.7941],[96.1355,16.7731],[96.164,16.7671],[96.185,16.7748],[96.1788,16.7782],[96.1768,16.7831],[96.18627703398559,16.803214521112274],[96.1846,16.7775],[96.2024,16.7739],[96.2371,16.803],[96.3425,16.9074],[96.30633820224719,16.869046578140956],[96.306,16.8696],[96.3043,16.8679],[96.30459257641921,16.867195156808254],[96.2171,16.7744],[96.2428,16.6727],[96.2759,16.5817],[96.2822,16.6013],[96.3312,16.6335],[96.4679,16.6129],[96.2825,16.596],[96.3982,16.4776],[96.5477,16.4969],[96.6482,16.5446],[96.7595,16.7487],[96.7852,16.7775],[96.8266,16.8291],[96.817,17.1269],[96.8351,17.1282],[96.8645,17.1276],[96.8651,17.1341],[96.8636,17.3543],[96.8955,17.3838],[96.93,17.2358],[96.9736,17.0501],[96.9986,17.045],[96.9907,17.1293],[97.0645,17.087],[97.0882,16.9878],[97.1676,17.1212],[97.1578,16.914],[97.2312,16.7805],[97.3598,16.5075],[97.412,16.51],[97.4108,16.4956],[97.4326,16.511],[97.4651663638121,16.512536149236418],[97.4599,16.5094],[97.4683,16.5084],[97.47846846883195,16.513163607020374],[97.528,16.5155],[97.5548,16.5109],[97.5551,16.5168],[97.5578,16.5169],[97.5828,16.5047],[97.5705,16.5175],[97.5767,16.5178],[97.5845,16.5124],[97.5827,16.5181],[97.5956,16.5187],[97.5984,16.513],[97.6046,16.5107],[97.6079,16.5119],[97.5964,16.5187],[97.5997,16.5189],[97.6094,16.5128],[97.6126,16.5168],[97.607,16.5192],[97.6087,16.5193],[97.6115,16.5185],[97.6111,16.5194],[97.6148,16.5196],[97.61413064845024,16.553788417618257],[97.6218,16.5406],[97.6291,16.5696],[97.6172,16.5714],[97.61391652103714,16.56472538702632],[97.61353819213777,16.584049263117155],[97.6262,16.5754],[97.636,16.6004],[97.61349892823773,16.586055566751558],[97.6122,16.6534],[97.6316,16.6227],[97.6452,16.6112],[97.6463,16.6095],[97.6509,16.6017],[97.6535,16.593],[97.6979,16.5735],[97.70716257498464,16.56776695358846],[97.6938,16.5682],[97.6944,16.5663],[97.7073,16.5654],[97.70989835745361,16.566073648228713],[97.72561717864478,16.55634452521776],[97.6604,16.5196],[97.6218,16.4678],[97.6181,16.4464],[97.6182,16.4464],[97.6182,16.4462],[97.6181,16.4462],[97.6295,16.3929],[97.621,16.3235],[97.6172,16.3359],[97.6092,16.3406],[97.6113,16.3225],[97.6203,16.3179],[97.62,16.315],[97.6179,16.3157],[97.6196,16.3114],[97.6185593921125,16.302879533913607],[97.6132,16.3126],[97.6148,16.2937],[97.6170312237541,16.290366937354985],[97.60575511617625,16.19803850763865],[97.6077,16.2735],[97.591,16.3374],[97.571,16.2812],[97.60554151897291,16.19628958016167],[97.593,16.0936],[97.5707,16.0096],[97.7156,15.8575],[97.7265,15.611],[97.798,14.8876],[97.8372,14.7118],[97.8997,14.7374],[97.8855,14.7735],[97.8955,14.8363],[97.9138,14.8195],[97.8971,14.7688],[97.9237,14.7387],[97.9384,14.8106],[97.9991,14.65],[97.9351,14.7251],[97.8718,14.6711],[97.9822,14.46],[97.997,14.2949],[98.0786,14.18],[98.0833,14.2192],[98.0663,13.7614],[98.168,13.5359],[98.1871,14.0414],[98.1899,14.0414],[98.2013,14.0145],[98.20192413711021,14.014145227326832],[98.2071,14.0024],[98.2102315833503,13.969874493505943],[98.2098,13.9706],[98.2033,13.9632],[98.21350452509043,13.935880798970482],[98.2202164969978,13.86616836872674],[98.2196,13.8679],[98.1853,13.7848],[98.198,13.7517],[98.22300599557104,13.837195851054538],[98.2269685969028,13.796039157800207],[98.2201,13.771],[98.2223,13.7648],[98.22859258553127,13.779171954608456],[98.2348,13.7147],[98.3677,13.5981],[98.4912,13.2947],[98.5413,13.2035],[98.5769,13.2463],[98.5906,12.9693],[98.635,12.9782],[98.6134,12.9538],[98.597,12.9559],[98.5894,12.9324],[98.6458,12.7697],[98.6721,12.781],[98.6458,12.7568],[98.6589,12.757],[98.6933,12.7812],[98.6871,12.7874],[98.7132,12.7987],[98.6944,12.7088],[98.6156,12.5578],[98.7181,12.4926],[98.6421,12.5028],[98.5934,12.4332],[98.7074,12.3511],[98.5793,12.419],[98.5377,12.3454],[98.6778,12.3208],[98.5636,12.3011],[98.5391,12.2181],[98.6863,12.2421],[98.737,12.1848],[98.6411,12.1674],[98.6964,12.1573],[98.7303,12.1072],[98.7037,12.1059],[98.6909,12.1545],[98.6461,12.1556],[98.6385,12.0682],[98.7369,12.0745],[98.7776,12.0183],[98.7112,12.0599],[98.7115,11.9256],[98.5622,11.8996],[98.6644,11.9264],[98.5105,11.9954],[98.438,12.1012],[98.4736,11.8764],[98.5465,11.8955],[98.7273,11.8711],[98.5968,11.8467],[98.6678,11.7708],[98.6461,11.7744],[98.627,11.7903],[98.617,11.7894],[98.6043,11.7196],[98.6901,11.6717],[98.6941,11.7472],[98.8146,11.8461],[98.8104,11.789],[98.7828,11.7502],[98.844,11.7258],[98.8386,11.7002],[98.8335,11.7143],[98.8237,11.7148],[98.8051,11.6925],[98.8371,11.6932],[98.8241,11.6316],[98.7872,11.685],[98.7259,11.6585],[98.7115,11.52],[98.7486,11.5342],[98.8049,11.411],[98.7131,11.4504],[98.6886,11.3946],[98.7594,11.2737],[98.7371,11.1759],[98.6495,11.1312],[98.6909,11.0866],[98.6868,11.0815],[98.6919,11.0794],[98.6949,11.0819],[98.6949,11.0822],[98.7428,11.0304],[98.6792,10.9984],[98.7815,10.9945],[98.7693,10.9746],[98.7124,10.9901],[98.7302,10.9148],[98.6642,10.9171],[98.7278,10.887],[98.6937,10.8541],[98.6419,10.9222],[98.662,10.8755],[98.5734,10.876],[98.6268,10.8664],[98.6395,10.8284],[98.6307,10.8293],[98.6264,10.8473],[98.6151,10.8474],[98.627,10.8571],[98.6161,10.8658],[98.6016,10.8567],[98.6134,10.8474],[98.5934,10.8477],[98.562,10.7118],[98.5141,10.7464],[98.5518,10.6664],[98.4884,10.7461],[98.4623,10.6931],[98.5408,10.3662],[98.4796,10.201],[98.5517,9.9742],[98.5594,9.9889],[98.56,9.9835],[98.5629,9.9861],[98.561,9.9916],[98.5606,9.9912],[98.6228,10.1105],[98.6208,10.1029],[98.6274,10.1013],[98.6283,10.1042],[98.6325,10.1053],[98.6333,10.1072],[98.6293,10.1074],[98.6341,10.1223],[98.63,10.1196],[98.6311,10.1223],[98.6292,10.1223],[98.6287,10.1218],[98.8088,10.467],[98.7812,10.6774],[98.9252,10.8244],[99.008,10.8514],[99.0209,10.9674],[99.0692,10.9383],[99.2295,11.1144],[99.3126,11.3164],[99.4027,11.3889],[99.475,11.6237],[99.5652,11.6257],[99.6653,11.8225],[99.5713,11.8658],[99.5637,12.1509],[99.4741,12.1305],[99.4861,12.2724],[99.399,12.4581],[99.4357,12.5872],[99.2395,12.7249],[99.1623,12.9273],[99.1956,12.9897],[99.0999,13.0724],[99.1237,13.1929],[99.2093,13.2007],[99.1885,13.292],[99.2059,13.4816],[99.1093,13.8923],[99.0211,13.9455],[98.9549,14.1029],[98.605,14.3187],[98.4511,14.586],[98.4392,14.6036],[98.2551,14.8128],[98.2081,14.982],[98.2026,15.2357],[98.2635,15.2387],[98.3002,15.3134],[98.4158,15.2616],[98.4161,15.3643],[98.4837,15.3902],[98.5614,15.3361],[98.5473,15.6831],[98.6104,15.8743],[98.5627,16.0419],[98.6306,16.0448],[98.665,16.1271],[98.848,16.1288],[98.9217,16.3915],[98.831,16.4222],[98.6749,16.2725],[98.6509,16.4725],[98.4639,16.7298],[98.5485,16.814],[98.4956,16.8408],[98.5374,16.8966],[98.4536,17.0253],[98.3121,17.0822],[98.3047,17.0913],[98.2437,17.2277],[98.1351,17.2934],[98.1101,17.3853],[97.7062,17.8168],[97.6935,17.8318],[97.7372,17.9844],[97.6141,18.2262],[97.6405,18.2875],[97.5728,18.3393],[97.5084,18.2657],[97.4621,18.3085],[97.3593,18.5975],[97.4505,18.4916],[97.7689,18.5784],[97.7419,18.8817],[97.6781,18.9487],[97.8392,19.0962],[97.8409,19.223],[97.7828,19.2638],[97.8438,19.2916],[97.787,19.3965],[97.8888,19.5007],[97.8632,19.5748],[98.0476,19.6534],[98.0484,19.8151],[98.1501,19.7756],[98.2269,19.7275],[98.2519,19.6755],[98.5086,19.7158],[98.5677,19.6715],[98.8391,19.8145],[98.9164,19.7415],[99.0202,19.806],[99.0734,20.0972],[99.1598,20.1308],[99.3296,20.0637],[99.4832,20.1098],[99.5657,20.2065],[99.4573,20.3927],[99.6198,20.3365],[99.8109,20.3365],[99.8705,20.4434],[99.9597,20.4649],[100.0847,20.3565],[100.2546,20.751],[100.3637,20.8249],[100.5736,20.8248],[100.6478,20.88],[100.5094,20.8876],[100.5455,21.023],[100.638,21.0635],[100.7253,21.3138],[100.8474,21.3039],[101.1634,21.5266],[101.1059,21.775],[100.8848,21.6878],[100.7249,21.5147],[100.5862,21.4534],[100.4821,21.4581],[100.4317,21.5415],[100.1692,21.4852],[100.1067,21.5936],[100.1575,21.6798],[100.0479,21.6679],[99.9749,21.7413],[99.9713,22.058],[99.8786,22.0692],[99.8537,22.0241],[99.4794,22.1348],[99.2486,22.1131],[99.1557,22.1626],[99.2608,22.3764],[99.3799,22.495],[99.3605,22.5415],[99.3264,22.7529],[99.461,22.8457],[99.4421,22.9418],[99.5658,22.9324],[99.524,23.0756],[99.3517,23.1318],[99.2106,23.0994],[99.1064,23.0917],[99.0606,23.1719],[98.9505,23.1789],[98.8861,23.1819],[98.9451,23.3096],[98.8781,23.3304],[98.9226,23.3618],[98.8826,23.4759],[98.8339,23.4785],[98.803,23.5391],[98.8908,23.6151],[98.8076,23.7693],[98.6736,23.809],[98.6776,23.9628],[98.8941,24.1272],[98.5943,24.0849],[98.5488,24.124],[98.0873,24.089],[97.7478,23.9023],[97.7452,23.9019],[97.666,23.8558],[97.6383,23.8632],[97.5291,23.9436],[97.7286,24.1148],[97.7332,24.1861],[97.7696,24.2627],[97.6675,24.2992],[97.7164,24.3605],[97.6756,24.4504],[97.5313,24.4371],[97.5508,24.7432],[97.702,24.8461],[97.8006,24.849],[97.731,24.9118],[97.7216,25.0841],[97.8376,25.2695],[97.9363,25.2198],[98.1403,25.3904],[98.1682,25.6259]],[[94.946,16.3319],[94.7252,16.0709],[94.7996,16.2147],[94.9451,16.3325],[94.946,16.3319]],[[95.1098,16.3195],[95.114,16.3238],[95.1143490647244,16.319579490150637],[95.1129,16.3198],[95.111,16.3151],[95.11533289540172,16.307684082870143],[95.1173,16.2839],[95.0422,16.1817],[94.9881,16.1595],[95.1098,16.3195]]],[[[98.1279,13.5334],[98.1306,13.5295],[98.1326,13.5334],[98.1309,13.5346],[98.1279,13.5334]]],[[[98.1996,13.6],[98.2001,13.5976],[98.2064,13.6004],[98.2045,13.6148],[98.1996,13.6]]],[[[98.1929,13.6498],[98.1795,13.6337],[98.1887,13.6121],[98.1949,13.6189],[98.1937,13.6331],[98.1929,13.6498]]],[[[98.1843,13.6677],[98.1884,13.6575],[98.192,13.6564],[98.1947,13.6683],[98.1843,13.6677]]],[[[98.06,13.8108],[98.0602,13.8026],[98.0669,13.8079],[98.0637,13.8113],[98.06,13.8108]]],[[[97.9269,13.8204],[97.9156,13.8739],[97.9009,13.8253],[97.9103,13.7871],[97.9269,13.8204]]],[[[98.1913,13.8249],[98.1958,13.8319],[98.2049,13.8528],[98.2057,13.8571],[98.1913,13.8249]]],[[[97.9114,13.8889],[97.9061,13.8953],[97.9129,13.8806],[97.9137,13.8844],[97.9114,13.8889]]],[[[97.9098,13.9453],[97.9173,13.8904],[97.9197,13.9146],[97.9173,13.9288],[97.9098,13.9453]]],[[[98.2079,13.8671],[98.2054,13.8582],[98.2085,13.8615],[98.2107,13.8694],[98.2079,13.8671]]],[[[97.7908,14.2018],[97.7906,14.2067],[97.7854,14.2043],[97.7851,14.1974],[97.7908,14.2018]]],[[[97.785,14.3083],[97.7863,14.3075],[97.7876,14.3092],[97.7867,14.3109],[97.785,14.3083]]],[[[97.7878,14.3159],[97.7884,14.3153],[97.7907,14.3197],[97.7887,14.3248],[97.7878,14.3159]]],[[[97.7877,14.3291],[97.7893,14.3276],[97.791,14.3301],[97.7896,14.3338],[97.7877,14.3291]]],[[[97.78,14.3917],[97.7834,14.4112],[97.7745,14.4182],[97.7679,14.3938],[97.78,14.3917]]],[[[97.7795,14.4316],[97.7819,14.422],[97.7839,14.4286],[97.7808,14.4326],[97.7795,14.4316]]],[[[97.7736,14.4366],[97.7742,14.4417],[97.7703,14.4449],[97.7635,14.435],[97.7736,14.4366]]],[[[97.7771,14.4576],[97.7749,14.46],[97.7721,14.4606],[97.7702,14.4542],[97.7771,14.4576]]],[[[97.8217,14.1256],[97.8073,14.1365],[97.7971,14.1267],[97.8019,14.1085],[97.8217,14.1256]]],[[[97.8173,14.1494],[97.8181,14.1484],[97.823,14.1532],[97.8227,14.1562],[97.8173,14.1494]]],[[[97.8089,14.1564],[97.8246,14.1884],[97.7888,14.1823],[97.7861,14.1394],[97.8089,14.1564]]],[[[97.7991,14.2782],[97.8068,14.2663],[97.8157,14.2765],[97.8051,14.2864],[97.7991,14.2782]]],[[[97.8152,14.2867],[97.8192,14.2837],[97.8193,14.2881],[97.816,14.2903],[97.8152,14.2867]]],[[[97.814,14.2952],[97.8172,14.2932],[97.8176,14.2937],[97.8149,14.2973],[97.814,14.2952]]],[[[98.6445,12.6458],[98.6418,12.6488],[98.6382,12.649],[98.638,12.6456],[98.6445,12.6458]]],[[[98.0101,11.4566],[98.0129,11.4712],[97.969,11.4485],[98.0054,11.4402],[98.0101,11.4566]]],[[[97.9283,11.5103],[97.9286,11.5149],[97.9274,11.5162],[97.9259,11.5109],[97.9283,11.5103]]],[[[97.9034,11.5147],[97.9078,11.5147],[97.9076,11.516],[97.9034,11.5147]]],[[[97.9325,11.5173],[97.9332,11.5198],[97.9319,11.5215],[97.9314,11.5183],[97.9325,11.5173]]],[[[97.5185,11.6507],[97.5219,11.6507],[97.5253,11.6575],[97.5256,11.6609],[97.5185,11.6507]]],[[[97.4827,11.7879],[97.4496,11.8004],[97.4416,11.782],[97.4846,11.7644],[97.4827,11.7879]]],[[[97.4865,11.8134],[97.4842,11.7879],[97.5195,11.783],[97.5221,11.813],[97.4865,11.8134]]],[[[97.6606,11.8019],[97.6639,11.8178],[97.6591,11.8231],[97.6386,11.8157],[97.6606,11.8019]]],[[[97.4689,11.8174],[97.4675,11.8265],[97.4645,11.8251],[97.4645,11.8164],[97.4689,11.8174]]],[[[97.6842,11.8709],[97.6748,11.8961],[97.6345,11.8688],[97.6727,11.8274],[97.6842,11.8709]]],[[[97.9988,11.9649],[97.9629,11.9585],[98.0028,11.9318],[98.0094,11.9585],[97.9988,11.9649]]],[[[97.9807,11.9719],[97.9829,11.9763],[97.9832,11.9789],[97.9779,11.9769],[97.9807,11.9719]]],[[[97.9123,11.9827],[97.9221,11.9842],[97.9209,11.9967],[97.9126,12.0001],[97.9123,11.9827]]],[[[97.7537,12.0013],[97.7456,12.0126],[97.7362,12.0111],[97.7458,11.9918],[97.7537,12.0013]]],[[[97.9944,12.0117],[97.9856,12.023],[97.9699,12.0183],[97.9933,12.0068],[97.9944,12.0117]]],[[[97.6561,12.0266],[97.6947,12.0487],[97.6731,12.059],[97.6503,12.0172],[97.6558,12.0175],[97.6561,12.0266]]],[[[97.7887,12.047],[97.7663,12.0508],[97.7584,12.044],[97.7638,12.0376],[97.7887,12.047]]],[[[97.9413,12.055],[97.9401,12.0489],[97.9408,12.0474],[97.943,12.0491],[97.9413,12.055]]],[[[97.9828,12.062],[97.9673,12.0735],[97.9619,12.0671],[97.9595,12.0302],[97.9828,12.062]]],[[[97.6554,12.0646],[97.6429,12.0662],[97.6356,12.0501],[97.652,12.0436],[97.6554,12.0646]]],[[[97.9786,12.1017],[97.9759,12.1083],[97.9719,12.089],[97.9761,12.089],[97.9786,12.1017]]],[[[97.9906,12.115],[97.9826,12.1125],[97.9963,12.0959],[98.0022,12.103],[97.9906,12.115]]],[[[97.9674,12.1184],[97.9729,12.1195],[97.9641,12.1199],[97.9678,12.1078],[97.9674,12.1184]]],[[[97.9707,12.1246],[97.9755,12.1229],[97.9756,12.1244],[97.9739,12.1269],[97.9707,12.1246]]],[[[97.7449,12.1303],[97.7328,12.1469],[97.7153,12.1443],[97.7189,12.1068],[97.7449,12.1303]]],[[[97.9785,12.1297],[97.9727,12.1394],[97.9807,12.1172],[97.9817,12.1199],[97.9785,12.1297]]],[[[98.0025,12.1331],[97.9952,12.1469],[97.9927,12.1307],[98.0116,12.125],[98.0025,12.1331]]],[[[97.944,12.2258],[97.943,12.2309],[97.9407,12.2461],[97.9402,12.2124],[97.944,12.2258]]],[[[97.8762,12.2383],[97.8777,12.2364],[97.882,12.2421],[97.8804,12.244],[97.8762,12.2383]]],[[[97.773,12.2856],[97.7726,12.2635],[97.7965,12.2814],[97.8003,12.3043],[97.773,12.2856]]],[[[97.8903,12.2926],[97.8838,12.2901],[97.8654,12.2865],[97.8867,12.2828],[97.8903,12.2926]]],[[[97.9578,12.3022],[97.9425,12.2905],[97.9494,12.2797],[97.9614,12.2992],[97.9578,12.3022]]],[[[97.9653,12.3011],[98.0099,12.2697],[98.0397,12.3048],[98.041,12.3043],[98.0477,12.3119],[98.0461,12.3123],[98.0806,12.3528],[98.0771,12.3399],[98.0786,12.3352],[98.0842,12.3482],[98.0829,12.3556],[98.1231,12.4029],[98.0949,12.4341],[98.037,12.3552],[97.9906,12.3497],[98.0293,12.4173],[97.9536,12.3862],[97.9422,12.3174],[97.9647,12.3015],[97.964,12.3002],[97.9676,12.2905],[97.9651,12.3007],[97.9653,12.3011]]],[[[98.009,12.4286],[98.0043,12.4193],[98.0121,12.4201],[98.0119,12.4281],[98.009,12.4286]]],[[[97.8222,12.4292],[97.8341,12.4368],[97.8343,12.4547],[97.8212,12.4735],[97.8222,12.4292]]],[[[97.7951,12.4969],[97.7988,12.4946],[97.804,12.5043],[97.7901,12.5092],[97.7951,12.4969]]],[[[97.8548,12.5896],[97.8232,12.5815],[97.8557,12.5395],[97.8808,12.5656],[97.8548,12.5896]]],[[[97.8488,12.6078],[97.8572,12.6012],[97.8643,12.6093],[97.8544,12.6167],[97.8488,12.6078]]],[[[97.8615,12.6169],[97.8785,12.622],[97.8651,12.6284],[97.8578,12.6201],[97.8615,12.6169]]],[[[97.8793,12.7911],[97.8597,12.814],[97.8367,12.778],[97.8816,12.7741],[97.8793,12.7911]]],[[[98.0114,11.4313],[98.0147,11.4262],[98.0165,11.4292],[98.0152,11.4335],[98.0114,11.4313]]],[[[98.1323,11.4648],[98.1205,11.4581],[98.1288,11.4349],[98.1458,11.447],[98.1323,11.4648]]],[[[98.0394,11.6339],[98.0405,11.636],[98.0388,11.6392],[98.0362,11.6392],[98.0394,11.6339]]],[[[98.0294,11.6509],[98.0285,11.65],[98.0299,11.6407],[98.0325,11.646],[98.0294,11.6509]]],[[[98.037,11.664],[98.0311,11.6564],[98.0394,11.6481],[98.0432,11.6624],[98.037,11.664]]],[[[98.0113,11.6935],[98.0863,11.6252],[98.0899,11.65],[98.0564,11.6681],[98.072,11.6857],[98.0486,11.6933],[98.0879,11.7402],[98.0533,11.7256],[98.0121,11.8564],[98.0113,11.6935]]],[[[98.1055,11.7568],[98.11,11.7572],[98.1187,11.762],[98.1194,11.7652],[98.1055,11.7568]]],[[[98.0706,11.824],[98.0791,11.8308],[98.0465,11.8055],[98.0637,11.7847],[98.0706,11.824]]],[[[98.1107,11.8198],[98.1179,11.8206],[98.123,11.8244],[98.1153,11.8263],[98.1107,11.8198]]],[[[98.1429,11.9979],[98.1457,12.0024],[98.1446,12.0056],[98.1363,12.0045],[98.1429,11.9979]]],[[[98.0229,12.0749],[98.0044,12.0749],[97.9951,12.0699],[98.0192,12.0593],[98.0229,12.0749]]],[[[98.1369,12.1358],[98.1301,12.1335],[98.1341,12.1252],[98.1387,12.1343],[98.1369,12.1358]]],[[[98.0613,12.1348],[98.0667,12.1278],[98.0688,12.1295],[98.0649,12.1401],[98.0613,12.1348]]],[[[98.0575,12.1486],[98.0549,12.1443],[98.0564,12.1428],[98.0583,12.1471],[98.0575,12.1486]]],[[[98.0234,12.1683],[98.0234,12.167],[98.0276,12.1696],[98.0278,12.1706],[98.0234,12.1683]]],[[[98.155,12.1696],[98.1528,12.184],[98.1422,12.1763],[98.15,12.1634],[98.155,12.1696]]],[[[98.0515,12.1944],[98.041,12.1952],[98.0379,12.1859],[98.0533,12.1867],[98.0515,12.1944]]],[[[98.1526,12.1967],[98.1572,12.1927],[98.1564,12.1963],[98.1533,12.1986],[98.1526,12.1967]]],[[[98.1584,12.2035],[98.1614,12.206],[98.1619,12.2094],[98.1556,12.2086],[98.1584,12.2035]]],[[[98.1536,12.2114],[98.1421,12.2137],[98.1272,12.2116],[98.1534,12.2018],[98.1536,12.2114]]],[[[98.1363,12.2845],[98.0818,12.2943],[98.0459,12.2041],[98.1488,12.1373],[98.1035,12.2003],[98.1363,12.2845]]],[[[98.1601,12.285],[98.1629,12.29],[98.16,12.2943],[98.1542,12.2881],[98.1601,12.285]]],[[[98.0539,12.2924],[98.0572,12.292],[98.0589,12.2941],[98.0576,12.2964],[98.0539,12.2924]]],[[[98.0612,12.3092],[98.0585,12.3024],[98.0629,12.3024],[98.0606,12.3047],[98.0612,12.3092]]],[[[98.0669,12.3064],[98.0679,12.3036],[98.0708,12.3075],[98.0691,12.3098],[98.0669,12.3064]]],[[[98.0873,12.306],[98.085,12.3092],[98.0812,12.3079],[98.0851,12.3051],[98.0873,12.306]]],[[[98.0762,12.3145],[98.0797,12.3132],[98.078,12.3166],[98.0762,12.3164],[98.0762,12.3145]]],[[[98.0745,12.3331],[98.0634,12.3157],[98.0642,12.3127],[98.0759,12.3285],[98.0745,12.3331]]],[[[98.1617,12.3363],[98.1331,12.3711],[98.0993,12.3624],[98.0985,12.3321],[98.1617,12.3363]]],[[[98.1757,12.3518],[98.1772,12.3579],[98.1728,12.3645],[98.1649,12.3584],[98.1757,12.3518]]],[[[98.0182,12.3719],[98.0121,12.3787],[98.0048,12.3743],[98.0153,12.3647],[98.0182,12.3719]]],[[[98.1426,12.3804],[98.144,12.3845],[98.1334,12.38],[98.1371,12.3783],[98.1426,12.3804]]],[[[98.1638,12.4245],[98.1403,12.4294],[98.1197,12.419],[98.1681,12.4091],[98.1638,12.4245]]],[[[98.021,12.4299],[98.0299,12.4409],[98.0274,12.4455],[98.0139,12.4369],[98.021,12.4299]]],[[[98.0951,12.4543],[98.0899,12.4553],[98.0842,12.4593],[98.0921,12.4511],[98.0951,12.4543]]],[[[98.175,12.4827],[98.1711,12.482],[98.1719,12.4752],[98.1739,12.4763],[98.175,12.4827]]],[[[98.151,12.4693],[98.1544,12.4859],[98.1557,12.4994],[98.1442,12.4693],[98.151,12.4693]]],[[[98.3171,11.5264],[98.3191,11.5253],[98.3209,11.5295],[98.3196,11.5313],[98.3171,11.5264]]],[[[98.3115,11.5223],[98.3136,11.5251],[98.3094,11.5408],[98.3041,11.5245],[98.3115,11.5223]]],[[[98.3131,11.5599],[98.3155,11.5735],[98.3114,11.5737],[98.3102,11.5595],[98.3131,11.5599]]],[[[98.3061,11.5785],[98.3067,11.5749],[98.3092,11.5796],[98.309,11.5824],[98.3061,11.5785]]],[[[98.2954,11.8032],[98.2576,11.7911],[98.1626,11.4368],[98.274,11.4682],[98.2954,11.8032]]],[[[98.3087,11.7714],[98.3046,11.776],[98.3008,11.7729],[98.3062,11.7654],[98.3087,11.7714]]],[[[98.21,11.7816],[98.2137,11.7807],[98.2145,11.7862],[98.2133,11.7877],[98.21,11.7816]]],[[[98.2552,11.8072],[98.2847,11.811],[98.29,11.8495],[98.2561,11.8378],[98.2552,11.8072]]],[[[98.2024,11.8503],[98.1907,11.8545],[98.1931,11.8395],[98.2096,11.8386],[98.2024,11.8503]]],[[[98.2098,11.8707],[98.1877,11.8705],[98.2064,11.8526],[98.2154,11.855],[98.2098,11.8707]]],[[[98.2156,11.887],[98.2141,11.8881],[98.2073,11.8826],[98.2164,11.8806],[98.2156,11.887]]],[[[98.2691,11.9209],[98.2493,11.9114],[98.2588,11.8509],[98.295,11.8949],[98.2691,11.9209]]],[[[98.2613,11.9281],[98.2747,11.9472],[98.2514,11.9907],[98.2241,11.9519],[98.2613,11.9281]]],[[[98.3951,12.0573],[98.4033,12.0624],[98.3996,12.065],[98.3907,12.0633],[98.3951,12.0573]]],[[[98.3836,12.1187],[98.3882,12.1112],[98.3908,12.1199],[98.3815,12.1273],[98.3836,12.1187]]],[[[98.4017,12.145],[98.4023,12.1732],[98.3839,12.1702],[98.3869,12.1413],[98.4017,12.145]]],[[[98.1831,12.1967],[98.1902,12.2071],[98.1912,12.212],[98.1849,12.2099],[98.1831,12.1967]]],[[[98.2475,12.2114],[98.2464,12.2234],[98.2443,12.2035],[98.2514,12.2026],[98.2475,12.2114]]],[[[98.2091,12.2235],[98.2196,12.2245],[98.2151,12.227],[98.207,12.2241],[98.2091,12.2235]]],[[[98.3348,12.2839],[98.3371,12.2865],[98.3336,12.2917],[98.3328,12.2901],[98.3348,12.2839]]],[[[98.3839,12.2907],[98.3961,12.317],[98.3694,12.3142],[98.3859,12.2652],[98.3839,12.2907]]],[[[98.351,12.3038],[98.3577,12.2907],[98.3646,12.3004],[98.3572,12.3104],[98.351,12.3038]]],[[[98.2574,12.3085],[98.2588,12.3132],[98.2517,12.3354],[98.2445,12.3501],[98.2515,12.2886],[98.2567,12.3061],[98.2587,12.3036],[98.2615,12.3045],[98.2622,12.3104],[98.2574,12.3085]]],[[[98.3904,12.3285],[98.3927,12.3284],[98.3924,12.331],[98.3874,12.327],[98.3904,12.3285]]],[[[98.403,12.335],[98.3988,12.3471],[98.3934,12.3486],[98.3999,12.3357],[98.403,12.335]]],[[[98.1813,12.3639],[98.1812,12.3681],[98.173,12.3713],[98.1751,12.3668],[98.1813,12.3639]]],[[[98.2317,12.3781],[98.2238,12.3705],[98.2086,12.369],[98.2342,12.3594],[98.2317,12.3781]]],[[[98.216,12.4428],[98.2181,12.4379],[98.2183,12.4415],[98.2171,12.4438],[98.216,12.4428]]],[[[98.2197,12.4475],[98.2206,12.4511],[98.2175,12.4551],[98.2166,12.4532],[98.2197,12.4475]]],[[[98.2139,12.4549],[98.2106,12.4551],[98.2139,12.4494],[98.2143,12.4515],[98.2139,12.4549]]],[[[98.4761,12.546],[98.4837,12.5486],[98.4825,12.5537],[98.4777,12.554],[98.4801,12.5663],[98.4379,12.6064],[98.4285,12.5207],[98.4064,12.6316],[98.3223,12.6702],[98.3381,12.3125],[98.4572,12.4509],[98.4761,12.546]]],[[[98.2908,12.5134],[98.2544,12.5656],[98.2216,12.5262],[98.2371,12.4899],[98.2908,12.5134]]],[[[98.2883,12.5359],[98.2854,12.5342],[98.2869,12.5313],[98.289,12.5321],[98.2883,12.5359]]],[[[98.2702,12.5539],[98.2821,12.5518],[98.2752,12.5622],[98.2701,12.5629],[98.2702,12.5539]]],[[[98.2995,12.5737],[98.3017,12.575],[98.2998,12.5764],[98.2983,12.5749],[98.2995,12.5737]]],[[[98.2173,12.6439],[98.2112,12.6475],[98.2101,12.6358],[98.2237,12.6371],[98.2173,12.6439]]],[[[98.1847,12.653],[98.1903,12.6498],[98.1966,12.6543],[98.1953,12.6585],[98.1847,12.653]]],[[[98.2074,12.6666],[98.2079,12.6609],[98.2164,12.6585],[98.2181,12.6602],[98.2074,12.6666]]],[[[98.3566,12.708],[98.3582,12.7292],[98.3325,12.7837],[98.3409,12.7247],[98.3566,12.708]]],[[[98.4062,11.7612],[98.3832,11.7133],[98.4332,11.7249],[98.3695,11.6857],[98.4237,11.5637],[98.5222,11.5128],[98.548,11.6117],[98.5311,11.7943],[98.3646,11.7737],[98.4062,11.7612]]],[[[98.4556,11.8312],[98.469,11.8285],[98.4673,11.8456],[98.4566,11.8516],[98.4556,11.8312]]],[[[98.4766,11.8291],[98.4987,11.842],[98.4862,11.8564],[98.4727,11.8545],[98.4766,11.8291]]],[[[98.4407,11.849],[98.4129,11.8647],[98.4066,11.842],[98.4217,11.8214],[98.4407,11.849]]],[[[98.6786,11.9778],[98.6098,11.9931],[98.6164,11.9695],[98.6855,11.9481],[98.6786,11.9778]]],[[[98.5503,12.019],[98.5538,12.0336],[98.532,12.0257],[98.5401,12.0094],[98.5503,12.019]]],[[[98.6468,12.1615],[98.6464,12.1587],[98.6509,12.1566],[98.6511,12.1609],[98.6468,12.1615]]],[[[98.6629,12.1874],[98.6747,12.1901],[98.6889,12.201],[98.6707,12.1999],[98.6629,12.1874]]],[[[98.4069,12.2097],[98.4014,12.2201],[98.4093,12.1732],[98.4271,12.1827],[98.4069,12.2097]]],[[[98.6084,12.1967],[98.6161,12.2012],[98.6188,12.2118],[98.6073,12.205],[98.6084,12.1967]]],[[[98.6869,12.2058],[98.6976,12.2031],[98.6999,12.2037],[98.7078,12.208],[98.6869,12.2058]]],[[[98.6351,12.1903],[98.6455,12.1857],[98.6864,12.2107],[98.66,12.2298],[98.6351,12.1903]]],[[[98.6952,12.2122],[98.6997,12.2105],[98.7032,12.2114],[98.7004,12.2162],[98.6952,12.2122]]],[[[98.4307,12.2109],[98.4285,12.2188],[98.4253,12.219],[98.4249,12.2171],[98.4307,12.2109]]],[[[98.6898,12.2116],[98.6989,12.2162],[98.699,12.2173],[98.6947,12.2198],[98.6898,12.2116]]],[[[98.4692,12.2239],[98.4571,12.234],[98.4458,12.2296],[98.4581,12.2124],[98.4692,12.2239]]],[[[98.4227,12.2294],[98.4187,12.2283],[98.413,12.2277],[98.4211,12.2222],[98.4227,12.2294]]],[[[98.436,12.2502],[98.4433,12.2442],[98.4468,12.2457],[98.4352,12.2525],[98.436,12.2502]]],[[[98.4921,12.2654],[98.4955,12.2784],[98.4791,12.271],[98.4806,12.269],[98.4921,12.2654]]],[[[98.4284,12.2727],[98.4339,12.2725],[98.4341,12.2782],[98.4275,12.2782],[98.4284,12.2727]]],[[[98.5068,12.2845],[98.5119,12.2767],[98.5279,12.2761],[98.5385,12.293],[98.5068,12.2845]]],[[[98.458,12.2958],[98.4584,12.2952],[98.4661,12.296],[98.4672,12.303],[98.458,12.2958]]],[[[98.6182,12.3127],[98.6246,12.3134],[98.6288,12.317],[98.614,12.3204],[98.6182,12.3127]]],[[[98.6079,12.3193],[98.5784,12.3232],[98.5736,12.321],[98.6164,12.313],[98.6079,12.3193]]],[[[98.5294,12.3172],[98.5476,12.3289],[98.5399,12.3399],[98.5211,12.3274],[98.5294,12.3172]]],[[[98.5089,12.3475],[98.4969,12.3437],[98.5006,12.3323],[98.5058,12.3361],[98.5089,12.3475]]],[[[98.4675,12.3248],[98.4833,12.3431],[98.4704,12.3974],[98.4236,12.3268],[98.4675,12.3248]]],[[[98.4354,12.3792],[98.4364,12.3931],[98.4266,12.3611],[98.4314,12.3662],[98.4354,12.3792]]],[[[98.4113,12.3815],[98.4119,12.3749],[98.416,12.3804],[98.4157,12.3859],[98.4113,12.3815]]],[[[98.4234,12.3938],[98.4235,12.3984],[98.4183,12.3953],[98.4185,12.391],[98.4234,12.3938]]],[[[98.5116,12.4376],[98.5009,12.5147],[98.4634,12.4163],[98.4877,12.3902],[98.4915,12.3933],[98.4891,12.3879],[98.5019,12.3715],[98.5247,12.4086],[98.5131,12.4409],[98.5116,12.4376]]],[[[98.4344,12.4069],[98.437,12.4114],[98.4367,12.4178],[98.4313,12.4072],[98.4344,12.4069]]],[[[98.447,12.4178],[98.4545,12.4324],[98.4568,12.4405],[98.4443,12.4313],[98.447,12.4178]]],[[[98.5733,12.4451],[98.5873,12.4316],[98.5867,12.4521],[98.5732,12.4621],[98.5733,12.4451]]],[[[98.5239,12.4733],[98.5268,12.4674],[98.5278,12.4699],[98.5254,12.4767],[98.5239,12.4733]]],[[[98.5174,12.7987],[98.5143,12.7852],[98.5167,12.7816],[98.5184,12.7911],[98.5174,12.7987]]],[[[98.2195,12.813],[98.2251,12.8195],[98.2181,12.8248],[98.2139,12.8208],[98.2195,12.813]]],[[[98.3248,12.8371],[98.3218,12.8465],[98.32,12.8469],[98.3239,12.838],[98.3248,12.8371]]],[[[98.3152,12.887],[98.3068,12.9103],[98.3059,12.8978],[98.3141,12.869],[98.3152,12.887]]],[[[98.1847,12.9421],[98.1761,12.926],[98.1929,12.9091],[98.1976,12.9262],[98.1847,12.9421]]],[[[98.5467,12.9332],[98.5392,12.9354],[98.5482,12.9207],[98.5513,12.9299],[98.5467,12.9332]]],[[[98.3197,13.0283],[98.3121,13.0319],[98.3144,13.0136],[98.3226,13.0175],[98.3197,13.0283]]],[[[98.3123,13.0478],[98.3153,13.052],[98.3068,13.0537],[98.3091,13.0493],[98.3123,13.0478]]],[[[98.3067,13.1267],[98.3129,13.1261],[98.3096,13.1346],[98.3035,13.1324],[98.2579,13.2124],[98.3058,12.9123],[98.2917,13.0453],[98.3332,13.0802],[98.3104,13.1202],[98.3104,13.122],[98.3091,13.1225],[98.3067,13.1267]]],[[[98.5211,13.1651],[98.5267,13.1235],[98.5354,13.1392],[98.5383,13.1558],[98.5211,13.1651]]],[[[98.5332,13.167],[98.5316,13.1751],[98.5236,13.1681],[98.526,13.1666],[98.5332,13.167]]],[[[98.4897,13.2152],[98.4976,13.1715],[98.5365,13.2063],[98.505,13.2436],[98.4897,13.2152]]],[[[98.6214,12.7099],[98.6179,12.712],[98.6186,12.7086],[98.6199,12.7078],[98.6214,12.7099]]],[[[98.6247,12.7173],[98.6268,12.7224],[98.6239,12.726],[98.6215,12.7207],[98.6247,12.7173]]],[[[98.5986,12.7336],[98.6011,12.7372],[98.6005,12.7398],[98.5981,12.7387],[98.5986,12.7336]]],[[[98.6869,12.7183],[98.6719,12.7498],[98.6286,12.7445],[98.6178,12.7595],[98.6269,12.7262],[98.6869,12.7183]]],[[[98.6326,12.7563],[98.6295,12.7546],[98.6358,12.7534],[98.6354,12.7559],[98.6326,12.7563]]],[[[98.6662,12.7567],[98.6691,12.7576],[98.6701,12.7602],[98.6666,12.7589],[98.6662,12.7567]]],[[[98.6479,12.7646],[98.6376,12.782],[98.6088,12.7884],[98.6158,12.7642],[98.6479,12.7646]]],[[[98.6072,12.8189],[98.6081,12.8212],[98.605,12.8238],[98.6036,12.8189],[98.6072,12.8189]]],[[[98.5579,12.9035],[98.5577,12.9086],[98.553,12.9163],[98.5521,12.9082],[98.5579,12.9035]]],[[[98.5593,13.1929],[98.5325,13.1776],[98.5684,13.1509],[98.5771,13.1683],[98.5593,13.1929]]],[[[98.5635,13.1874],[98.5685,13.1876],[98.5716,13.1889],[98.563,13.1916],[98.5635,13.1874]]],[[[97.9733,9.6059],[97.9792,9.6235],[97.9737,9.638],[97.951,9.6352],[97.9733,9.6059]]],[[[98.0172,9.7671],[98.0291,9.7642],[98.0294,9.768],[98.0283,9.7769],[98.0172,9.7671]]],[[[98.0495,9.7888],[98.0579,9.8312],[98.018,9.8458],[98.0084,9.8],[98.0495,9.7888]]],[[[97.9913,10.0576],[97.9876,10.0493],[97.9898,10.0349],[97.9944,10.0467],[97.9913,10.0576]]],[[[97.9781,10.086],[97.9784,10.0724],[97.9894,10.0646],[97.9932,10.0798],[97.9847,10.0762],[97.9781,10.086]]],[[[97.9587,10.1301],[97.98,10.1382],[97.9869,10.1545],[97.9796,10.1808],[97.9587,10.1301]]],[[[97.9282,10.1679],[97.9086,10.1617],[97.9147,10.1579],[97.9283,10.1613],[97.9282,10.1679]]],[[[98.0286,10.1923],[98.0254,10.1976],[98.0345,10.1503],[98.0333,10.1708],[98.0286,10.1923]]],[[[97.9722,10.2001],[97.9727,10.1939],[97.9742,10.191],[97.9762,10.194],[97.9722,10.2001]]],[[[97.8696,10.195],[97.8806,10.2005],[97.8738,10.2065],[97.8674,10.206],[97.8696,10.195]]],[[[97.9659,10.2099],[97.9641,10.2056],[97.9657,10.2012],[97.9712,10.2035],[97.9659,10.2099]]],[[[97.9666,10.2173],[97.9692,10.2143],[97.9721,10.2177],[97.9731,10.2203],[97.9666,10.2173]]],[[[97.9741,10.2275],[97.9729,10.2266],[97.9746,10.2222],[97.976,10.2253],[97.9741,10.2275]]],[[[97.9949,10.3675],[97.9841,10.324],[97.9975,10.3416],[97.9998,10.3539],[97.9949,10.3675]]],[[[97.9675,10.3677],[97.9647,10.3575],[97.9661,10.3507],[97.97,10.3582],[97.9675,10.3677]]],[[[97.9369,10.3547],[97.9422,10.3579],[97.9417,10.3685],[97.9461,10.37],[97.9501,10.3777],[97.9409,10.3707],[97.9369,10.3547]]],[[[97.9461,10.4069],[97.9414,10.4137],[97.947,10.3959],[97.9456,10.401],[97.9461,10.4069]]],[[[97.9604,10.412],[97.9637,10.4175],[97.9621,10.4269],[97.9577,10.4407],[97.9604,10.412]]],[[[97.8956,10.3993],[97.9464,10.4402],[97.9071,10.4882],[97.8934,10.4882],[97.8956,10.3993]]],[[[97.6886,10.4678],[97.6871,10.4682],[97.6818,10.4663],[97.6851,10.4604],[97.6886,10.4678]]],[[[97.8927,10.5001],[97.9154,10.5111],[97.9178,10.5209],[97.8898,10.509],[97.8927,10.5001]]],[[[97.939,10.5592],[97.9984,10.5385],[98.0236,10.5872],[97.9959,10.5639],[97.939,10.5592]]],[[[98.0738,9.6502],[98.0944,9.6382],[98.0948,9.6494],[98.0887,9.656],[98.0738,9.6502]]],[[[98.0379,9.656],[98.0364,9.6528],[98.0387,9.6396],[98.0425,9.6477],[98.0379,9.656]]],[[[98.1095,9.7275],[98.0797,9.705],[98.0968,9.6969],[98.1083,9.7027],[98.1095,9.7275]]],[[[98.1484,9.7616],[98.157,9.7544],[98.1592,9.7586],[98.1587,9.7671],[98.1484,9.7616]]],[[[98.1154,9.7795],[98.1166,9.7975],[98.1138,9.8041],[98.1023,9.7979],[98.1154,9.7795]]],[[[98.1135,9.8323],[98.1089,9.8244],[98.1135,9.8219],[98.1159,9.827],[98.1135,9.8323]]],[[[98.2283,9.9386],[98.2298,9.9282],[98.2344,9.9248],[98.2299,9.9377],[98.2283,9.9386]]],[[[98.116,9.8478],[98.3034,10.0192],[98.264,10.0609],[98.1257,9.9634],[98.116,9.8478]]],[[[98.2084,10.0512],[98.2213,10.0467],[98.2232,10.0559],[98.2162,10.0575],[98.2084,10.0512]]],[[[98.1673,10.1435],[98.1796,10.0363],[98.2394,10.1687],[98.2068,10.1946],[98.1673,10.1435]]],[[[98.16,10.1668],[98.1361,10.1562],[98.1424,10.1407],[98.1586,10.1492],[98.16,10.1668]]],[[[98.2376,10.2586],[98.2442,10.2332],[98.2464,10.2347],[98.2519,10.254],[98.2376,10.2586]]],[[[98.2144,10.4332],[98.2256,10.4646],[98.2211,10.4655],[98.2124,10.4606],[98.2144,10.4332]]],[[[98.1644,10.4574],[98.1621,10.4464],[98.1667,10.4498],[98.1672,10.4545],[98.1644,10.4574]]],[[[98.2398,10.4659],[98.2378,10.4627],[98.2484,10.4468],[98.2502,10.457],[98.2398,10.4659]]],[[[98.1784,10.4587],[98.1966,10.4632],[98.1872,10.4661],[98.1818,10.4676],[98.1784,10.4587]]],[[[98.1599,10.4689],[98.1722,10.474],[98.1681,10.4759],[98.1603,10.4801],[98.1599,10.4689]]],[[[98.1921,10.4829],[98.236,10.4903],[98.2348,10.5332],[98.1964,10.5257],[98.1921,10.4829]]],[[[98.2201,10.5508],[98.2294,10.5459],[98.2346,10.5609],[98.228,10.5641],[98.2201,10.5508]]],[[[98.0984,10.5679],[98.0877,10.5813],[98.0865,10.5781],[98.0962,10.5563],[98.0984,10.5679]]],[[[98.0439,10.5906],[98.0382,10.58],[98.0447,10.573],[98.0515,10.5809],[98.0439,10.5906]]],[[[98.234,10.6276],[98.2268,10.6229],[98.2319,10.6169],[98.2361,10.621],[98.234,10.6276]]],[[[98.5205,9.9271],[98.5475,9.9477],[98.5269,9.9578],[98.5154,9.9587],[98.5205,9.9271]]],[[[98.4961,9.9806],[98.4894,9.9774],[98.4926,9.9725],[98.4968,9.9725],[98.4961,9.9806]]],[[[98.5566,9.9801],[98.5566,9.9769],[98.5576,9.9761],[98.5584,9.9791],[98.5566,9.9801]]],[[[98.4699,9.9969],[98.4736,9.9818],[98.4967,9.9886],[98.4832,9.9971],[98.4699,9.9969]]],[[[98.5049,10.0086],[98.5199,10.0134],[98.5135,10.0242],[98.5024,10.0329],[98.5049,10.0086]]],[[[98.3181,10.1047],[98.3212,10.101],[98.3231,10.1053],[98.322,10.1059],[98.3181,10.1047]]],[[[98.3108,10.0881],[98.313,10.1222],[98.2789,10.139],[98.2868,10.0853],[98.3108,10.0881]]],[[[98.3344,10.1276],[98.3319,10.1418],[98.325,10.1369],[98.3164,10.1397],[98.3344,10.1276]]],[[[98.3067,10.142],[98.3043,10.1341],[98.314,10.129],[98.312,10.1399],[98.3067,10.142]]],[[[98.6569,10.1753],[98.6607,10.1719],[98.664,10.1746],[98.6637,10.1772],[98.6569,10.1753]]],[[[98.2854,10.3448],[98.2859,10.3348],[98.297,10.3376],[98.2961,10.3439],[98.2854,10.3448]]],[[[98.2811,10.4351],[98.2833,10.4407],[98.2759,10.4328],[98.2765,10.4324],[98.2811,10.4351]]],[[[98.3431,10.5904],[98.3455,10.5959],[98.3434,10.5962],[98.3406,10.5896],[98.3431,10.5904]]],[[[98.2451,10.6178],[98.2573,10.6123],[98.2603,10.6182],[98.2606,10.6331],[98.2451,10.6178]]],[[[98.2636,10.6469],[98.2572,10.6437],[98.2591,10.6397],[98.2643,10.6452],[98.2636,10.6469]]],[[[98.3497,10.6333],[98.3602,10.639],[98.3589,10.6536],[98.3539,10.6452],[98.3497,10.6333]]],[[[98.2446,10.6825],[98.2366,10.6524],[98.2612,10.6503],[98.2698,10.6787],[98.2446,10.6825]]],[[[98.2062,10.797],[98.2038,10.8002],[98.1998,10.796],[98.2046,10.7941],[98.2062,10.797]]],[[[98.1953,10.8312],[98.1958,10.8155],[98.2003,10.8111],[98.1984,10.8293],[98.1953,10.8312]]],[[[98.2057,10.8348],[98.2037,10.8306],[98.2068,10.8251],[98.2099,10.8321],[98.2057,10.8348]]],[[[98.3029,10.7856],[98.1776,10.9875],[98.0828,10.8717],[98.1548,10.9264],[98.2228,10.8787],[98.2601,10.6878],[98.3029,10.7856]]],[[[98.1939,10.8436],[98.1954,10.8579],[98.176,10.8588],[98.1892,10.824],[98.192,10.8257],[98.1936,10.8408],[98.1963,10.8321],[98.2049,10.8388],[98.2052,10.8427],[98.1939,10.8436]]],[[[98.0734,10.8804],[98.0406,10.8724],[98.0281,10.8562],[98.0803,10.8314],[98.0734,10.8804]]],[[[98.0199,10.8688],[98.0038,10.8847],[98.0131,10.8929],[97.9968,10.8828],[98.0199,10.8688]]],[[[97.8802,10.8424],[97.9489,10.9018],[97.9225,10.9309],[97.8896,10.9071],[97.8802,10.8424]]],[[[98.1852,10.9871],[98.1962,10.9822],[98.1956,10.9878],[98.1912,10.9903],[98.1852,10.9871]]],[[[97.9256,11.2856],[97.9197,11.2784],[97.9242,11.2737],[97.9275,11.2837],[97.9256,11.2856]]],[[[98.2077,11.268],[98.2741,11.2907],[98.275,11.3282],[98.2197,11.2928],[98.2077,11.268]]],[[[98.0008,11.321],[98.0226,11.3162],[98.0135,11.3204],[98.0116,11.324],[98.0008,11.321]]],[[[98.002,11.3492],[97.9978,11.3478],[98,11.3248],[98.0085,11.342],[98.002,11.3492]]],[[[98.016,11.3529],[98.0151,11.3594],[98.0101,11.3611],[98.002,11.3584],[98.016,11.3529]]],[[[98.138,11.3632],[98.1457,11.4108],[98.1094,11.4133],[98.0947,11.4059],[98.138,11.3632]]],[[[98.2196,11.3883],[98.2282,11.3802],[98.2254,11.3914],[98.219,11.3972],[98.2196,11.3883]]],[[[98.0121,11.3825],[98.0154,11.3879],[97.9967,11.4158],[97.9929,11.3881],[98.0121,11.3825]]],[[[98.3476,10.6887],[98.3385,10.6889],[98.3372,10.6819],[98.3404,10.6857],[98.3476,10.6887]]],[[[98.5406,10.764],[98.5457,10.7565],[98.5476,10.7631],[98.5423,10.7674],[98.5406,10.764]]],[[[98.5092,10.7752],[98.5616,10.8562],[98.501,10.8832],[98.4923,10.7937],[98.5092,10.7752]]],[[[98.5367,10.8959],[98.5308,10.8806],[98.541,10.8762],[98.5415,10.8915],[98.5367,10.8959]]],[[[98.4691,10.8804],[98.4856,10.8982],[98.4814,10.898],[98.4671,10.8936],[98.4691,10.8804]]],[[[98.2504,10.9106],[98.2518,10.9194],[98.249,10.9203],[98.247,10.9214],[98.2504,10.9106]]],[[[98.4361,10.9356],[98.4313,10.9326],[98.4346,10.9271],[98.4382,10.9318],[98.4361,10.9356]]],[[[98.4404,10.9596],[98.4657,10.9901],[98.4655,11.0049],[98.4349,11.0024],[98.4404,10.9596]]],[[[98.5211,10.9907],[98.542,10.9532],[98.5347,11.0694],[98.4689,10.9909],[98.5051,10.9392],[98.5211,10.9907]]],[[[98.2996,11.0085],[98.3191,11.0111],[98.3107,11.0378],[98.2942,11.0249],[98.2996,11.0085]]],[[[98.5267,11.125],[98.5251,11.1239],[98.5266,11.1114],[98.5301,11.114],[98.5267,11.125]]],[[[98.2622,11.1787],[98.2545,11.1853],[98.2548,11.1679],[98.2619,11.1725],[98.2622,11.1787]]],[[[98.2452,11.1938],[98.2927,11.2258],[98.2544,11.2601],[98.2071,11.2417],[98.2452,11.1938]]],[[[98.5461,11.262],[98.5532,11.2803],[98.5441,11.3066],[98.5245,11.3234],[98.5461,11.262]]],[[[98.2516,11.3522],[98.2613,11.3777],[98.2361,11.3635],[98.2408,11.3416],[98.2516,11.3522]]],[[[98.2819,11.3949],[98.2743,11.4018],[98.2615,11.3993],[98.2678,11.39],[98.2819,11.3949]]],[[[98.2743,11.415],[98.2711,11.4112],[98.2747,11.4059],[98.2794,11.4095],[98.2743,11.415]]],[[[98.484,11.4059],[98.5262,11.418],[98.5118,11.44],[98.5017,11.4638],[98.484,11.4059]]],[[[98.5441,10.7896],[98.5455,10.783],[98.5502,10.7864],[98.5546,10.8058],[98.5441,10.7896]]],[[[98.6671,10.9339],[98.7035,10.9324],[98.6942,10.9411],[98.691,10.9441],[98.6671,10.9339]]],[[[98.5561,10.9536],[98.5582,10.9498],[98.5602,10.9517],[98.5577,10.9561],[98.5561,10.9536]]],[[[98.6882,10.9752],[98.7016,10.9687],[98.7104,10.9905],[98.6934,10.9945],[98.6882,10.9752]]],[[[98.669,10.9778],[98.6817,10.9871],[98.6723,10.9875],[98.6637,10.9839],[98.669,10.9778]]],[[[98.6784,11.0105],[98.6761,11.0603],[98.6529,11.061],[98.6399,11.0226],[98.6784,11.0105]]],[[[98.6136,11.0136],[98.6252,11.0327],[98.6117,11.0643],[98.5972,11.0296],[98.6136,11.0136]]],[[[98.7004,11.065],[98.6991,11.0633],[98.7009,11.0614],[98.7043,11.0622],[98.7004,11.065]]],[[[98.6144,11.0662],[98.6222,11.0735],[98.6123,11.0732],[98.6118,11.0703],[98.6144,11.0662]]],[[[98.6751,11.0724],[98.6675,11.0722],[98.6702,11.0699],[98.6747,11.0711],[98.6751,11.0724]]],[[[98.6731,11.0758],[98.6737,11.0771],[98.6717,11.079],[98.6669,11.0781],[98.6731,11.0758]]],[[[98.6787,11.5143],[98.6791,11.5062],[98.6851,11.4975],[98.6851,11.5073],[98.6787,11.5143]]],[[[97.6173,16.3961],[97.6146,16.3912],[97.6151,16.3826],[97.6187,16.387],[97.6173,16.3961]]],[[[97.604,16.3724],[97.609,16.3883],[97.6049,16.4093],[97.6018,16.3968],[97.604,16.3724]]],[[[97.6217,16.3908],[97.6222,16.394],[97.6203,16.3995],[97.62,16.3936],[97.6217,16.3908]]],[[[97.6113,16.4089],[97.6098,16.405],[97.6124,16.3925],[97.6147,16.4023],[97.6113,16.4089]]],[[[97.6097,16.4097],[97.6094,16.4114],[97.6066,16.4154],[97.6089,16.4072],[97.6097,16.4097]]],[[[97.6329,16.5136],[97.6303,16.512],[97.6354,16.5092],[97.6395,16.5103],[97.6329,16.5136]]],[[[97.642,16.5194],[97.6373,16.5194],[97.6335,16.5164],[97.6384,16.5147],[97.642,16.5194]]],[[[97.6469,16.5243],[97.6363,16.5259],[97.6303,16.5204],[97.6429,16.5211],[97.6469,16.5243]]],[[[97.6295,16.5238],[97.635,16.5285],[97.6354,16.5302],[97.6309,16.5281],[97.6295,16.5238]]],[[[97.6527,16.5701],[97.6515,16.5906],[97.6501,16.5989],[97.6267,16.5311],[97.6527,16.5701]]],[[[97.6398,16.5073],[97.6549,16.5207],[97.6544,16.5249],[97.6474,16.5187],[97.6398,16.5073]]],[[[97.6441,16.5262],[97.6495,16.5325],[97.633,16.5251],[97.6377,16.5266],[97.6441,16.5262]]],[[[97.651,16.5304],[97.6507,16.5323],[97.6503,16.5319],[97.6502,16.5294],[97.651,16.5304]]],[[[97.6395,16.5302],[97.6413,16.5304],[97.6432,16.5323],[97.6373,16.5317],[97.6395,16.5302]]],[[[97.6817,16.5639],[97.684,16.565],[97.6844,16.5656],[97.6788,16.565],[97.6817,16.5639]]],[[[97.6863,16.5675],[97.6806,16.5686],[97.677,16.5658],[97.6831,16.5663],[97.6863,16.5675]]],[[[97.6569,16.5661],[97.6557,16.5722],[97.6539,16.5735],[97.6546,16.5688],[97.6569,16.5661]]],[[[97.6552,16.5743],[97.6554,16.5752],[97.6542,16.5777],[97.6541,16.5754],[97.6552,16.5743]]],[[[97.6425,16.5907],[97.646,16.5985],[97.6432,16.6057],[97.6406,16.597],[97.6425,16.5907]]],[[[97.5709,16.2882],[97.5732,16.2926],[97.5723,16.2983],[97.5702,16.2935],[97.5709,16.2882]]],[[[97.5905,16.39],[97.5909,16.3891],[97.5917,16.3917],[97.5914,16.3932],[97.6038,16.4403],[97.6042,16.4409],[97.6045,16.4429],[97.6118,16.4702],[97.5245,16.5014],[97.4386,16.4587],[97.5376,16.1904],[97.5905,16.39]]],[[[97.5976,16.355],[97.5999,16.3416],[97.6015,16.3546],[97.6006,16.3628],[97.5976,16.355]]],[[[97.6117,16.3461],[97.61,16.3467],[97.6098,16.3435],[97.6137,16.3412],[97.6117,16.3461]]],[[[97.74,15.0979],[97.7262,15.0646],[97.7361,15.0622],[97.7421,15.0824],[97.74,15.0979]]],[[[97.7348,15.2101],[97.7294,15.2018],[97.7354,15.1921],[97.7389,15.2035],[97.7348,15.2101]]],[[[97.7057,15.3043],[97.7017,15.3087],[97.705,15.3004],[97.7126,15.3013],[97.7057,15.3043]]],[[[97.6432,15.5889],[97.655,15.4971],[97.6629,15.5262],[97.6539,15.5781],[97.6432,15.5889]]],[[[97.5553,16.5056],[97.5594,16.4997],[97.5695,16.4979],[97.5665,16.5011],[97.5553,16.5056]]],[[[97.5736,16.5056],[97.5763,16.505],[97.5724,16.5081],[97.5671,16.509],[97.5694,16.507],[97.5568,16.5111],[97.5594,16.5062],[97.5759,16.4994],[97.5858,16.5016],[97.5736,16.5056]]],[[[97.5561,16.516],[97.557,16.5137],[97.5618,16.5126],[97.559,16.5153],[97.5561,16.516]]],[[[97.5738,16.4982],[97.5788,16.4954],[97.5874,16.4975],[97.5901,16.499],[97.5738,16.4982]]],[[[97.5938,16.5084],[97.587,16.5069],[97.5886,16.505],[97.5929,16.5041],[97.5938,16.5084]]],[[[97.5848,16.5111],[97.5871,16.509],[97.5904,16.5092],[97.5906,16.5124],[97.5848,16.5111]]],[[[93.5374,19.6528],[93.5437,19.6486],[93.5429,19.6532],[93.5354,19.6573],[93.5374,19.6528]]],[[[93.5719,19.6484],[93.5854,19.6588],[93.5777,19.6708],[93.5607,19.6577],[93.5719,19.6484]]],[[[93.498,19.712],[93.4485,19.7387],[93.4092,19.7417],[93.5016,19.6764],[93.498,19.712]]],[[[93.5524,19.6823],[93.5881,19.7483],[93.5103,19.7196],[93.5191,19.6817],[93.5524,19.6823]]],[[[93.4829,19.7249],[93.5024,19.7175],[93.4929,19.73],[93.4749,19.7389],[93.4607,19.7466],[93.4829,19.7249]]],[[[93.4,19.8066],[93.4021,19.7937],[93.4051,19.7983],[93.4033,19.8072],[93.4,19.8066]]],[[[93.5018,19.9187],[93.5102,19.9233],[93.5043,19.9362],[93.4896,19.921],[93.4904,19.9208],[93.448,19.9286],[93.3968,19.9674],[93.4432,19.7867],[93.513,19.7338],[93.5335,19.9129],[93.5018,19.9187]]],[[[93.6881,19.6611],[93.6897,19.657],[93.6949,19.6592],[93.6948,19.6615],[93.6881,19.6611]]],[[[93.5946,19.7058],[93.5926,19.7031],[93.5946,19.7024],[93.5962,19.7033],[93.5946,19.7058]]],[[[93.5891,19.7131],[93.5851,19.7109],[93.5868,19.7069],[93.5908,19.7105],[93.5891,19.7131]]],[[[93.6065,19.8467],[93.5979,19.8106],[93.612,19.8225],[93.636,19.872],[93.6065,19.8467]]],[[[93.7064,19.8982],[93.7149,19.8881],[93.7285,19.8881],[93.7238,19.8929],[93.7174,19.8938],[93.7064,19.8982]]],[[[93.1206,20.0438],[93.0681,20.1223],[92.9788,20.131],[93.1729,19.7886],[93.1017,19.9453],[93.1229,20.0388],[93.2216,19.8185],[93.248,19.8179],[93.1581,19.991],[93.1369,20.0561],[93.1174,20.051],[93.1206,20.0438]]],[[[92.9422,20.0822],[92.9144,20.0622],[93.0255,19.8151],[93.0199,19.9241],[92.9422,20.0822]]],[[[93.1152,20.055],[93.1295,20.059],[93.1225,20.0745],[93.1116,20.0578],[93.1152,20.055]]],[[[93.1098,20.0616],[93.1259,20.0834],[93.0948,20.1522],[93.0678,20.1259],[93.1098,20.0616]]],[[[93.0644,20.1271],[93.093,20.1526],[93.082,20.1736],[93.0555,20.1344],[93.0644,20.1271]]],[[[92.983,20.2461],[92.9407,20.1999],[92.9684,20.1757],[92.9733,20.1772],[92.983,20.2461]]],[[[92.2563,21.027],[92.2662,21.0092],[92.2648,21.0332],[92.2611,21.0506],[92.2563,21.027]]],[[[93.6371,19.3734],[93.6391,19.3745],[93.6397,19.3789],[93.6356,19.3773],[93.6371,19.3734]]],[[[93.637,19.4286],[93.6217,19.4318],[93.6342,19.4014],[93.64,19.4101],[93.637,19.4286]]],[[[93.6173,19.4396],[93.6151,19.4528],[93.6007,19.4454],[93.6064,19.4343],[93.6173,19.4396]]],[[[93.6254,19.4905],[93.5941,19.4751],[93.6462,19.4453],[93.6463,19.4636],[93.6254,19.4905]]],[[[93.534,19.477],[93.5298,19.4784],[93.5332,19.4642],[93.5453,19.4712],[93.534,19.477]]],[[[93.5361,19.4857],[93.5176,19.5003],[93.5076,19.5024],[93.522,19.4744],[93.5361,19.4857]]],[[[93.5988,19.4606],[93.5897,19.4748],[93.5426,19.4939],[93.5117,19.5219],[93.5413,19.4861],[93.5988,19.4606]]],[[[93.5319,19.5274],[93.5291,19.534],[93.52,19.5444],[93.5208,19.5408],[93.5319,19.5274]]],[[[93.5087,19.5327],[93.5068,19.5389],[93.5028,19.5425],[93.5032,19.5372],[93.5087,19.5327]]],[[[93.4846,19.5378],[93.485,19.5374],[93.4891,19.5383],[93.4899,19.5414],[93.4846,19.5378]]],[[[93.6239,19.5444],[93.6199,19.5438],[93.6219,19.5397],[93.6249,19.5431],[93.6239,19.5444]]],[[[93.5987,19.5514],[93.5946,19.5546],[93.5862,19.5563],[93.587,19.5556],[93.5987,19.5514]]],[[[93.502,19.545],[93.4984,19.5567],[93.4889,19.5669],[93.4877,19.5648],[93.502,19.545]]],[[[93.6137,19.5574],[93.6169,19.5554],[93.6249,19.5643],[93.6131,19.5663],[93.6137,19.5574]]],[[[93.6005,19.6076],[93.6372,19.6089],[93.6197,19.6263],[93.6063,19.6269],[93.6005,19.6076]]],[[[93.6354,19.6261],[93.6329,19.6358],[93.6296,19.6399],[93.6285,19.6335],[93.6354,19.6261]]],[[[93.8259,19.2546],[93.8333,19.2572],[93.8361,19.2621],[93.8165,19.2608],[93.8259,19.2546]]],[[[93.7487,19.2843],[93.7522,19.2737],[93.7592,19.2792],[93.7534,19.2841],[93.7487,19.2843]]],[[[93.8641,19.2833],[93.8622,19.2979],[93.8442,19.2952],[93.8419,19.2706],[93.8641,19.2833]]],[[[93.8049,19.2667],[93.8269,19.2981],[93.7937,19.3058],[93.7712,19.2964],[93.8049,19.2667]]],[[[93.6516,19.3762],[93.6408,19.3543],[93.6573,19.3336],[93.6878,19.3637],[93.6516,19.3762]]],[[[93.6542,19.3809],[93.6514,19.3811],[93.6634,19.3787],[93.6625,19.3802],[93.6542,19.3809]]],[[[93.7519,19.5381],[93.7589,19.5336],[93.7574,19.5421],[93.7532,19.5461],[93.7519,19.5381]]],[[[93.653,19.5711],[93.6264,19.545],[93.6481,19.5257],[93.6696,19.5639],[93.653,19.5711]]],[[[93.6686,19.5741],[93.6611,19.5801],[93.6547,19.5748],[93.675,19.5716],[93.6686,19.5741]]],[[[93.6524,19.5853],[93.6488,19.5858],[93.6529,19.5752],[93.661,19.5822],[93.6524,19.5853]]],[[[93.6923,19.5896],[93.6954,19.5926],[93.6899,19.5958],[93.6891,19.5921],[93.6923,19.5896]]],[[[93.6998,19.6049],[93.7096,19.5921],[93.7196,19.5917],[93.7131,19.5989],[93.6998,19.6049]]],[[[93.6508,19.6403],[93.6502,19.6327],[93.6542,19.629],[93.6579,19.6322],[93.6508,19.6403]]],[[[93.7842,18.6023],[93.7999,18.6333],[93.7935,18.6681],[93.7719,18.6221],[93.7842,18.6023]]],[[[93.8138,18.7294],[93.8067,18.7186],[93.8109,18.7139],[93.8198,18.7188],[93.8138,18.7294]]],[[[93.7501,18.7317],[93.7437,18.8868],[93.6251,18.8978],[93.4791,18.873],[93.7007,18.6683],[93.7501,18.7317]]],[[[93.9775,18.7421],[94.0089,18.7288],[93.9964,18.7408],[93.9906,18.7504],[93.9775,18.7421]]],[[[93.9783,18.7756],[93.9798,18.7705],[93.986,18.7655],[93.9857,18.7724],[93.9783,18.7756]]],[[[93.9871,18.7799],[93.9904,18.7905],[93.9704,18.8378],[93.9403,18.7969],[93.9871,18.7799]]],[[[94.0172,19.1072],[94.0097,19.114],[93.9941,19.1034],[94.0064,19.0926],[94.0172,19.1072]]],[[[93.9892,19.4536],[93.9841,19.4547],[93.9722,19.4598],[93.9712,19.4462],[93.9892,19.4536]]],[[[93.8766,19.4723],[93.8799,19.4717],[93.8798,19.4748],[93.8759,19.4736],[93.8766,19.4723]]],[[[94.3145,18.3756],[94.3256,18.3726],[94.3223,18.3768],[94.3184,18.3781],[94.3145,18.3756]]],[[[94.2279,18.5383],[94.2392,18.5325],[94.2366,18.5381],[94.2354,18.5404],[94.2279,18.5383]]],[[[94.0476,19.0238],[94.0619,19.0414],[94.0443,19.0434],[94.0322,19.0219],[94.0476,19.0238]]],[[[94.0216,19.0385],[94.0416,19.0453],[94.0406,19.0686],[94.0178,19.0491],[94.0216,19.0385]]],[[[94.5194,17.5726],[94.5166,17.5762],[94.5162,17.5705],[94.5179,17.5697],[94.5194,17.5726]]],[[[94.5721,17.5836],[94.573,17.5775],[94.5809,17.5713],[94.5813,17.5756],[94.5721,17.5836]]],[[[94.4849,17.7584],[94.4864,17.7627],[94.4781,17.7582],[94.4811,17.7587],[94.4849,17.7584]]],[[[96.2718,16.5346],[96.2791,16.5319],[96.2731,16.547],[96.2636,16.5554],[96.2718,16.5346]]],[[[96.1304,16.3214],[96.1356,16.3121],[96.15,16.3253],[96.1687,16.3316],[96.1304,16.3214]]],[[[93.3789,14.1223],[93.3717,14.152],[93.3519,14.1498],[93.3652,14.0457],[93.3789,14.1223]]],[[[93.6363,14.8745],[93.6436,14.9002],[93.6127,14.8751],[93.6115,14.8363],[93.6363,14.8745]]],[[[94.4244,16.9502],[94.4261,16.9483],[94.433,16.953],[94.4287,16.9564],[94.4244,16.9502]]],[[[94.4993,17.3193],[94.4989,17.3142],[94.5034,17.3151],[94.502,17.3204],[94.4993,17.3193]]],[[[94.2763,15.8696],[94.2721,15.8632],[94.2752,15.8586],[94.2804,15.8647],[94.2763,15.8696]]],[[[94.5741,16.0052],[94.6576,16.1655],[94.6447,16.2538],[94.3845,16.0043],[94.3948,15.8346],[94.4181,15.8558],[94.4337,15.8817],[94.4458,15.9248],[94.4695,15.9258],[94.4813,15.9729],[94.5741,16.0052]]],[[[94.5268,16.1554],[94.518,16.1392],[94.5314,16.1458],[94.5399,16.156],[94.5268,16.1554]]],[[[94.6795,16.3845],[94.5744,16.2319],[94.6079,16.2466],[94.6604,16.3308],[94.6795,16.3845]]],[[[94.6341,16.3421],[94.6466,16.3414],[94.6669,16.3787],[94.6341,16.3421]]],[[[94.6982,16.3808],[94.6964,16.3993],[94.6931,16.3951],[94.692,16.3721],[94.6982,16.3808]]],[[[94.6969,16.4029],[94.6976,16.4156],[94.696,16.4114],[94.6949,16.3999],[94.6969,16.4029]]],[[[94.6923,16.4271],[94.6936,16.4175],[94.6959,16.4222],[94.6943,16.4303],[94.6923,16.4271]]],[[[94.8127,15.9394],[94.7311,15.8196],[94.8117,15.7932],[94.8235,15.8475],[94.8127,15.9394]]],[[[94.843,15.8838],[94.8428,15.8997],[94.8299,15.9089],[94.8347,15.8925],[94.843,15.8838]]],[[[94.5163,15.9224],[94.5146,15.9303],[94.5075,15.9284],[94.5114,15.921],[94.5163,15.9224]]],[[[94.6557,16.2752],[94.6629,16.2858],[94.6636,16.2879],[94.6549,16.2765],[94.6557,16.2752]]],[[[94.6799,16.3089],[94.681,16.3193],[94.6751,16.3087],[94.6749,16.3021],[94.6799,16.3089]]],[[[95.0236,15.726],[95.0586,15.713],[95.0644,15.7434],[95.0463,15.7478],[95.0236,15.726]]],[[[94.9828,15.8475],[94.9934,15.7763],[95.0414,15.8336],[95.0056,15.8435],[94.9828,15.8475]]],[[[95.0585,15.8157],[95.0631,15.8168],[95.0639,15.8348],[95.0553,15.8255],[95.0585,15.8157]]],[[[94.8431,15.999],[94.8523,16.0056],[94.8535,16.0109],[94.8393,15.9992],[94.8431,15.999]]],[[[94.8767,16.1708],[94.879,16.1846],[94.8654,16.1728],[94.8674,16.1594],[94.8767,16.1708]]],[[[95.3121,15.6732],[95.3709,15.6976],[95.2758,15.6961],[95.2731,15.6802],[95.3121,15.6732]]],[[[95.2474,15.6872],[95.2453,15.6948],[95.211,15.6897],[95.2075,15.7008],[95.2044,15.6984],[95.2041,15.6946],[95.2104,15.6842],[95.2474,15.6872]]],[[[95.3309,15.9577],[95.3181,15.9489],[95.3124,15.9269],[95.3334,15.9371],[95.3309,15.9577]]],[[[95.1233,16.1023],[95.1134,16.0972],[95.1092,16.0911],[95.1205,16.0979],[95.1233,16.1023]]],[[[95.3312,16.1259],[95.3281,16.122],[95.3275,16.1189],[95.3302,16.1231],[95.3312,16.1259]]],[[[95.3342,16.1267],[95.3364,16.1301],[95.3325,16.1269],[95.331,16.1229],[95.3342,16.1267]]],[[[95.3368,16.1238],[95.3433,16.1341],[95.3389,16.1316],[95.3302,16.1191],[95.3368,16.1238]]],[[[95.3435,16.1361],[95.3469,16.1403],[95.3391,16.135],[95.3372,16.1322],[95.3435,16.1361]]],[[[95.3619,16.1641],[95.3642,16.2105],[95.3045,16.1566],[95.3239,16.1191],[95.3619,16.1641]]],[[[95.3381,16.1984],[95.3445,16.2025],[95.3289,16.1944],[95.3255,16.1891],[95.3381,16.1984]]],[[[95.989,16.4012],[95.9971,16.3895],[96.0109,16.386],[95.9971,16.3991],[95.989,16.4012]]]]},"properties":{"iso3":"MMR"}},
{"type":"Feature","geometry":{"type":"MultiPolygon","coordinates":[[[[37.4036,36.6492],[37.2703,36.6646],[37.1502,36.6634],[37.0963,36.6235],[37.0345,36.6568],[37.0581,36.7208],[36.9657,36.772],[36.9271,36.7798],[36.9027,36.7777],[36.7602,36.8159],[36.6707,36.8427],[36.603,36.5899],[36.5684,36.4501],[36.6078,36.3299],[36.6691,36.3205],[36.7048,36.2504],[36.6413,36.2292],[36.6183,36.2166],[36.5788,36.2324],[36.5574,36.2281],[36.469,36.2028],[36.3976,36.2232],[36.3949,36.0496],[36.3029,35.9662],[36.1975,35.9329],[36.1548,35.8202],[36.0345,35.8795],[36.0086,35.9402],[35.8962,35.8972],[35.805,35.8536],[35.8541,35.7559],[35.8194,35.7067],[35.7828,35.6194],[35.7272,35.5843],[35.8449,35.4853],[35.8821,35.4628],[35.9394,35.2722],[35.9466,35.2711],[35.9616,35.1943],[35.8967,35.102],[35.9016,35.028],[35.8857,34.9432],[35.939,34.7659],[35.9786,34.7043],[36.0515,34.6798],[35.9786,34.7042],[36.0242,34.6333],[36.1173,34.638],[36.289,34.63],[36.3188,34.6848],[36.4443,34.6282],[36.4534,34.6329],[36.331,34.5089],[36.4486,34.5064],[36.5522,34.4219],[36.5471,34.3488],[36.6005,34.2225],[36.5526,34.1306],[36.5005,34.048],[36.3855,34.0141],[36.2832,33.9037],[36.3907,33.8407],[36.2954,33.8342],[36.2787,33.8455],[36.1024,33.82],[36.0789,33.8226],[36.0481,33.7842],[35.9313,33.6466],[36.0544,33.5665],[35.8211,33.3905],[35.8155,33.358],[35.7126,33.3182],[35.6208,33.2708],[35.6846,33.2429],[35.6464,33.0671],[35.6313,32.9618],[35.6495,32.8097],[35.6447,32.6778],[35.7469,32.7321],[35.9023,32.725],[36.0327,32.658],[36.0907,32.518],[36.2423,32.504],[36.3111,32.4602],[36.5,32.3617],[36.5988,32.3496],[36.7217,32.333],[36.7246,32.3326],[36.8348,32.3164],[36.9282,32.3755],[37.0928,32.4643],[37.4643,32.664],[39.1253,33.5315],[39.8661,33.8802],[40.265,34.068],[40.9976,34.4131],[41.1183,34.6221],[41.2333,34.8265],[41.2195,35.1084],[41.2886,35.4939],[41.3943,35.6303],[41.3811,35.8353],[41.258,36.0546],[41.288,36.2379],[41.2945,36.3562],[41.3823,36.4817],[41.8358,36.5985],[42.2033,36.915],[42.3848,37.0672],[42.3574,37.2275],[42.2271,37.2766],[42.225,37.3191],[42.1062,37.2128],[41.8921,37.1435],[41.6552,37.1119],[41.3479,37.08],[41.2184,37.0636],[41.0681,37.1038],[40.7551,37.1072],[40.4205,36.9999],[39.8419,36.7553],[39.504,36.7021],[39.1069,36.6926],[38.8008,36.6974],[38.6442,36.7698],[38.3116,36.9058],[38.1377,36.8844],[38.0245,36.8268],[37.7893,36.7484],[37.6455,36.7262],[37.4036,36.6492]]],[[[35.8597,34.8538],[35.8613,34.8577],[35.8579,34.8591],[35.856,34.8587],[35.8562,34.8544],[35.8597,34.8538]]]]},"properties":{"iso3":"SYR"}}
]}